School Name,School Type,Address,City,Zipcode,County,Ex_Rel,Ex_Med,Ex_Tot
Andover Elementary School,Public,35 School Rd,Andover,6232,Tolland,3.0,1.0,4.1
Ansonia High School,Public,20 Pulaski Highway,Ansonia,6401,New Haven,0.0,0.0,0.0
Emmett O'Brien Technical High School,Public,141 Prindle Avenue,Ansonia,6401,New Haven,1.4,0.0,1.4
Ashford School,Public,440 Westford Rd.,Ashford,6278,Windham,2.2,0.8,3.0
Avon High School,Public,510 West Avon Rd,Avon,6001,Hartford,1.2,1.2,2.4
Avon Middle School,Public,375 West Avon Road,Avon,6001,Hartford,1.7,0.0,1.7
Avon Old Farms School,Non-public,500 Old Farms Road,Avon,6001,Hartford,0.5,0.3,0.8
Pine Grove School,Public,151 Scoville Road,Avon,6001,Hartford,1.2,0.2,1.4
Reggio Magnet School Of The Arts,Public,59 Waterville Rd,Avon,6001,Hartford,2.8,0.2,3.0
Roaring Brook School,Public,30 Old Wheeler Lane,Avon,6001,Hartford,1.7,0.4,2.0
Talcott Mountain Academy,Non-public,324 Montevideo Road,Avon,6001,Hartford,0.0,0.0,0.0
Thompson Brook School,Public,150 Thompson Rd,Avon,6001,Hartford,4.2,0.0,4.2
Webb In The Valley School,Non-public,135 Darling Dr,Avon,6001,Hartford,,,
Academy Of The Holy Family,Non-public,54 West Main Street,Baltic,6330,New London,0.0,0.0,0.0
Sayles School,Public,25 Scotland Rd.,Baltic,6330,New London,1.1,0.0,1.1
St. Joseph School,Non-public,10 School Hill Road,Baltic,6330,New London,11.3,2.8,14.1
Barkhamsted School,Public,65 Ripley Hill Road,Barkhamsted,6063,Litchfield,5.7,0.5,6.1
Laurel Ledge Elementary School,Public,30Highland Ave,Beacon Falls,6403,New Haven,0.3,1.7,2.0
Woodland Regional High School,Public,135 Back Rimmon Road,Beacon Falls,6403,New Haven,6.7,4.9,11.7
Catherine Mcgee Middle School,Public,899 Norton Road,Berlin,6037,Hartford,3.8,0.0,3.8
Emma Hart Willard Elementary School,Public,1088 Norton Road,Berlin,6037,Hartford,2.3,2.3,4.6
Berlin High School,Public,139 Patterson Way,Berlin,6037,Hartford,1.7,0.1,1.8
Bethany Community School,Public,44 Peck Road,Bethany,6524,New Haven,3.0,0.0,3.0
Amity Middle School Bethany,Public,190 Luke Hill Road,Bethany,6524,New Haven,1.6,0.0,1.6
Anna H. Rockwell,Public,400 Whittlesey Dr,Bethel,6801,Fairfield,2.4,0.0,2.4
Bethel High School,Public,300 Whittlesey Dr,Bethel,6801,Fairfield,2.7,0.3,2.9
Bethel Middle School,Public,600 Whittlesey Dr,Bethel,6801,Fairfield,1.7,0.5,2.2
Frank A Berry Elementary,Public,200 Whittlesey Drive,Bethel,6801,Fairfield,1.0,0.0,1.0
R.M.T. Johnson School,Public,500 Whittlesey Drive,Bethel,6801,Fairfield,4.3,0.0,4.3
St Mary School,Non-public,24 Dodgingtown Road,Bethel,6801,Fairfield,1.6,0.5,2.1
Bethlehem Elementary School,Public,92 East Street,Bethlehem,6751,Litchfield,4.3,0.0,4.3
Woodhall School,Non-public,58 Harrison Lane,Bethlehem,6751,Litchfield,0.0,2.4,2.4
Academy Of International Studies (6-12),Public,1551 Blue Hills Ave,Bloomfield,6002,Hartford,1.4,1.4,2.8
Bloomfield High School,Public,5 Huckleberry Ln,Bloomfield,6002,Hartford,1.3,0.0,1.3
Global Experience Magnet,Public,44 Griffin Road South,Bloomfield,6002,Hartford,1.6,0.0,1.6
Laurel Elementary School,Public,1 Filley Street,Bloomfield,6002,Hartford,0.0,0.3,0.3
Metacomet Elementary School,Public,185 School Street,Bloomfield,6002,Hartford,1.4,0.5,1.8
Wintonbury Early Childhood Magnet School,Public,44 Brown Street,Bloomfield,6002,Hartford,0.3,0.0,0.3
Carmen Arace,Public,390 Park Ave,Bloomfield,6002,Hartford,0.7,0.2,0.9
Crec River Street Autism Program At Birken,Public,1289 Blue Hills Ave.,Bloomfield,6002,Hartford,9.4,0.0,9.4
Greater Hartford Academy Of The Arts Middle School,Public,129 Griffin Road North,Bloomfield,6002,Hartford,2.4,0.0,2.4
Bolton Center School,Public,108 Notch Road,Bolton,6043,Hartford,1.4,0.2,1.6
Bolton High School,Public,72 Brandy St.,Bolton,6043,Tolland,1.3,1.3,2.6
Fields Memorial School,Public,8 Bozrah St. Ext,Bozrah,6334,New London,5.4,0.0,5.4
Branford High School,Public,185 E Main Street,Branford,6405,New Haven,0.9,1.8,2.7
East Shoreline Catholic Academy,Non-public,62 Cedar St,Branford,6405,New Haven,0.9,0.5,1.4
Indian Neck School,Public,12 Melrose Ave,Branford,6405,New Haven,0.0,0.0,0.0
John B. Sliney Elementary,Public,23 Eades Street,Branford,6405,New Haven,0.7,0.4,1.1
Mary T Murphy School,Public,14 Brushy Plain Rd,Branford,6405,New Haven,1.4,1.1,2.4
Walsh Intermediate School,Public,185 Damascus Rd.,Branford,6405,New Haven,1.0,0.0,1.0
Mary R. Tisko School,Public,118 Damascus Rd.,Branford,6405,New Haven,0.9,0.0,0.9
Achievement First Middle School,Public,529 Noble Ave,Bridgeport,6608,Fairfield,0.0,0.0,0.0
Beardsley,Public,500 Huntington Rd,Bridgeport,6610,Fairfield,0.0,0.0,0.0
Bridgeport International Academy,Non-public,285 Lafayette Street,Bridgeport,6604,Fairfield,3.3,1.6,4.9
Bridgeport Learning Center,Public,280 Tesiny Ave,Bridgeport,6606,Fairfield,3.9,0.0,3.9
Bridgeport Military Academy,Public,160 Iranistan Avenue,Bridgeport,6604,Fairfield,0.0,1.0,1.0
Bryant Elementary,Public,230 Poplar Street,Bridgeport,6605,Fairfield,0.0,0.0,0.0
Capital Preparatory Harbor Lower School,Public,461 Mill Hill Avenue,Bridgeport,6610,Fairfield,0.5,0.0,0.5
Central High School,Public,1 Lincoln Blvd,Bridgeport,6606,Fairfield,0.4,0.1,0.5
Cesar Batalla,Public,606 Howard Avenue,Bridgeport,6607,Fairfield,0.1,0.0,0.1
Classical Studies Academy Annex,Public,659 Beachwood Ave,Bridgeport,6605,Fairfield,1.4,0.0,1.4
Classical Studies Magnet Academy,Public,240 Linwood Ave,Bridgeport,6604,Fairfield,0.4,0.0,0.4
Columbus School,Public,275 George Street,Bridgeport,6604,Fairfield,0.0,0.0,0.0
Edison School,Public,115 Boston Terrace,Bridgeport,6610,Fairfield,1.1,1.1,2.2
Fairchild Wheeler Interdistrict Magnet Campus,Public,840 Old Town Road,Bridgeport,6606,Fairfield,1.0,0.1,1.1
Geraldine Johnson School,Public,475 Lexington Avenue,Bridgeport,6604,Fairfield,0.4,0.1,0.5
Great Oaks Charter,Public,375 Howard Avenue,Bridgeport,6605,Fairfield,0.1,1.0,1.2
Hallen School,Public,68 Omega Avenue,Bridgeport,6606,Fairfield,1.2,0.4,1.5
High Horizon Magnet School,Public,700 Palisade Ave,Bridgeport,6610,Fairfield,0.0,0.0,0.0
James J. Curiale,Public,300 Laurel Ave,Bridgeport,6605,Fairfield,0.0,0.0,0.0
John Winthrop,Public,85 Eckart Street,Bridgeport,6606,Fairfield,1.9,0.0,1.9
Luis Munoz Marin School,Public,479 Helen Street,Bridgeport,6608,Fairfield,0.3,0.0,0.3
Multicultural Magnet School,Public,700 Palisade Avenue,Bridgeport,6610,Fairfield,0.5,0.5,1.0
New Beginnings Family Academy,Public,184 Garden St,Bridgeport,6605,Fairfield,1.0,0.0,1.0
P.L. Dunbar,Public,445 Union Avenue,Bridgeport,6607,Fairfield,0.0,1.9,1.9
Park City Magnet,Public,1526 Chopsey Hill Road,Bridgeport,6606,Fairfield,0.0,0.0,0.0
Read School,Public,130 Ezra Street,Bridgeport,6606,Fairfield,0.0,0.0,0.0
Roosevelt,Public,680 Park Ave.,Bridgeport,6604,Fairfield,0.2,0.4,0.6
Six To Six Magnet School,Public,601 Pearl Harbor Sstreet,Bridgeport,6611,Fairfield,2.4,0.4,2.8
Skane,Public,2977 Madison Avenue,Bridgeport,6606,Fairfield,0.0,0.5,0.5
St Augustine Academy,Non-public,63 Pequonock St,Bridgeport,6604,Fairfield,0.5,0.0,0.5
St. Andrews,Non-public,395 Anton St,Bridgeport,6606,Fairfield,1.2,0.0,1.2
St. Raphael Academy,Non-public,324 Frank Street,Bridgeport,6605,Fairfield,0.0,0.4,0.4
Tisdale School,Public,250 Hollister Ave,Bridgeport,6607,Fairfield,0.0,0.0,0.0
Waltersville School,Public,150 Hallett Street,Bridgeport,6608,Fairfield,0.2,1.6,1.8
Warren Harding High School,Public,379 Bond Street,Bridgeport,6610,Fairfield,0.4,0.1,0.5
Wilbur Cross Elementary School,Public,1775 Reservoir Avenue,Bridgeport,6606,Fairfield,0.3,0.3,0.7
Barnum School,Public,495 Waterview Avenue,Bridgeport,6608,Fairfield,0.2,0.0,0.2
Black Rock,Public,545 Brewster St,Bridgeport,6605,Fairfield,1.6,1.4,2.9
Blackham Elementary School,Public,425 Thorme Street,Bridgeport,6606,Fairfield,0.9,0.1,1.0
Discovery Magnet,Public,4510 Park Ave,Bridgeport,6604,Fairfield,0.8,0.2,1.0
Hall,Public,290 Clermont Ave,Bridgeport,6610,Fairfield,0.5,0.0,0.5
Madison Elementary,Public,376 Wayne St,Bridgeport,6606,Fairfield,0.0,0.0,0.0
St Anns Academy,Non-public,521 Brewster St,Bridgeport,6605,Fairfield,0.4,0.0,0.4
Thomas Hooker,Public,138 Roger Williams Road,Bridgeport,6610,Fairfield,0.4,0.0,0.4
Burnham School,Public,80 Main Street,Bridgewater,6752,Litchfield,15.3,0.0,15.3
Bristol Arts And Innovation Magnet School,Public,70 Memorial Boulevard,Bristol,6010,Hartford,0.8,0.0,0.8
Bristol Central High School,Public,480 Wolcott Street,Bristol,6010,Hartford,0.4,0.0,0.4
Bristol Early Childhood Center,Public,240 Stafford Avenue,Bristol,6010,Hartford,0.0,0.0,0.0
Bristol Eastern High School,Public,632 King Street,Bristol,6010,Hartford,0.5,0.2,0.7
Bristol Preparatory Academy,Public,210 Redstone Hill Rd,Bristol,6010,Hartford,0.0,0.0,0.0
Chippens Hill Middle School,Public,551 Peacedale Street,Bristol,6010,Hartford,0.7,0.0,0.7
Destination Program (Bristol Eastern High School),Public,632 King St,Bristol,6010,Hartford,0.0,0.0,0.0
Edgewood Elementary,Public,345 Mix Street,Bristol,6010,Hartford,0.0,0.0,0.0
Ellen P. Hubbell,Public,90 West Washington Street,Bristol,6010,Hartford,1.0,0.0,1.0
Greene-Hills School,Public,718 Pine Street,Bristol,6010,Hartford,0.6,0.1,0.7
Immanuel Lutheran,Non-public,154 Meadow St.,Bristol,6010,Hartford,9.4,0.0,9.4
Ivy Drive Elementary School,Public,160 Ivy Drive,Bristol,6010,Hartford,0.5,0.0,0.5
Mountain View,Public,71 Vera Road,Bristol,6010,Hartford,1.8,0.0,1.8
Northeast Middle School,Public,530 Stevens St,Bristol,6010,Hartford,1.2,0.0,1.2
South Side School,Public,21 Tuttle Rd,Bristol,6010,Hartford,1.0,0.6,1.6
St. Joseph School,Non-public,335 Center St,Bristol,6010,Hartford,3.8,0.0,3.8
St. Pauls Catholic High School,Non-public,1001 Stafford Ave,Bristol,6010,Hartford,2.5,0.5,3.0
Stafford Elementary School,Public,212 Louisiana Avenue,Bristol,6010,Hartford,0.6,0.0,0.6
West Bristol School,Public,500 Clark Avenue,Bristol,6010,Hartford,2.0,0.4,2.4
Broad Brook Elementary School,Public,14 Rye St,Broad Brook,6016,Hartford,2.3,0.2,2.5
East Windsor Middle School,Public,38 Main Street,Broad Brook,6082,Hartford,3.4,0.3,3.7
Brookfield High School,Public,45 Long Meadow Hill Rd,Brookfield,6804,Fairfield,2.6,0.6,3.2
Center Elementary School,Public,8 Obtuse Hill Rd,Brookfield,6804,Fairfield,1.3,0.0,1.3
Christian Life Academy,Non-public,133 Junction Road,Brookfield,6804,Fairfield,0.9,0.0,0.9
Huckleberry Hill Elementary School,Public,100 Candlewood Lake Rd.,Brookfield,6804,Fairfield,3.5,0.2,3.7
Whisconier Middle School,Public,17 West Whisconier Rd,Brookfield,6804,Fairfield,2.8,0.4,3.2
Brooklyn Elementary School,Public,119 Gorman Rd,Brooklyn,6234,Windham,5.4,0.6,6.0
Brooklyn Middle School,Public,119 Gorman Road,Brooklyn,6234,Windham,3.9,0.6,4.5
The Learning Clinic,Non-public,473 Pomfret Rd,Brooklyn,6234,Windham,,,
Harbur Middle School,Public,24 Lyon Road,Burlington,6013,Hartford,1.7,0.0,1.7
Lake Garda,Public,61 Monce,Burlington,6013,Hartford,3.6,0.0,3.6
Lewis S Mills High School,Public,26 Lyon Rd,Burlington,6013,Hartford,1.4,0.0,1.4
North Canaan Elementary School,Public,90 Pease Street,Canaan,6018,Litchfield,0.0,0.4,0.4
Canterbury Elementary School,Public,67 Kitt Road,Canterbury,6331,Windham,1.8,0.0,1.8
Dr Helen Baldwin Middle School,Public,45 Westminster Road,Canterbury,6331,Windham,3.0,0.0,3.0
Canton High School,Public,76 Simonds Ave,Canton,6019,Hartford,2.1,0.0,2.1
Canton Intermediate School,Public,39 Dyer Ave,Canton,6019,Hartford,6.0,0.0,6.0
Canton Middle School,Public,76 Simonds Ave,Canton,6019,Hartford,5.2,0.0,5.2
Cherry Brook Primary School,Public,4 Barbourtown Road,Canton,6019,Hartford,3.6,1.1,4.7
Fresh Start School,Non-public,126 Dowd Ave,Canton,6019,Hartford,,,
Essex Elementary School,Public,108 Main St.,Centerbrook,6426,Middlesex,1.3,0.0,1.3
Plainfield High School,Public,105 Putnam Road,Central Village,6332,Windham,2.7,0.0,2.7
Chaplin Elementary School,Public,240 Palmer Road,Chaplin,6235,Windham,1.4,0.0,1.4
Parish Hill Middle High School,Public,304 Parish Hill Rd,Chaplin,6235,Windham,0.0,0.5,0.5
Chapman Elementary,Public,38 Country Club Road,Cheshire,6410,New Haven,2.2,0.0,2.2
Cheshire Academy,Non-public,10 Main Street,Cheshire,6410,New Haven,0.6,0.0,0.6
Cheshire High School,Public,525 South Main St.,Cheshire,6410,New Haven,1.1,0.1,1.2
Darcey,Public,1686 Waterbury Rd.,Cheshire,6410,New Haven,0.0,0.0,0.0
Dodd Middle School,Public,100 Park Place,Cheshire,6410,New Haven,2.4,0.2,2.6
Doolittle,Public,735 Cornwall Ave,Cheshire,6410,New Haven,0.6,0.0,0.6
Highland Elementary School,Public,490 Highland Avenue,Cheshire,6410,New Haven,3.4,0.5,3.9
Humiston School,Public,29 Main St.,Cheshire,6410,New Haven,,,
Norton Elementary School,Public,414 North Brooksvale Rd,Cheshire,6410,New Haven,1.6,0.0,1.6
St. Bridget School,Non-public,171 Main St.,Cheshire,6410,New Haven,4.0,0.6,4.6
The Webb School At Cheshire,Non-public,725 Jarvis St,Cheshire,6410,New Haven,,,
Chester Elementary,Public,23 Ridge Road,Chester,6412,Middlesex,5.8,0.0,5.8
Jared Eliot School,Public,69 Fairydell Road,Clinton,6413,Middlesex,0.7,0.0,0.7
Joel Elementary,Public,137 Glenwood Ave,Clinton,6413,Middlesex,1.1,0.5,1.6
Morgan High School,Public,71 Killingworth Tpke,Clinton,6413,Middlesex,0.2,0.0,0.2
Bacon Academy,Public,611 Norwich Avenue,Colchester,6415,New London,2.0,1.1,3.1
Colchester Elementary School,Public,315 Halls Hill Rd,Colchester,6415,New London,2.6,0.9,3.5
Jack Jackter Intermediate School,Public,215 Halls Hill Rd,Colchester,6415,New London,5.5,0.4,6.0
William J. Johnston Middle School,Public,360 Norwich Ave,Colchester,6415,New London,3.9,0.6,4.5
Colebrook Consolidated School,Public,452 Smith Hill,Colebrook,6021,Litchfield,2.8,0.0,2.8
Bridges Community School,Public,10 Commerce Drive,Columbia,6237,Windham,,,
Eastconn Educational And Vocational Center,Public,14 Rt 66,Columbia,6237,Windham,,,
Horace Porter School,Public,3 Schoolhouse Rd,Columbia,6237,Tolland,3.8,0.0,3.8
Cos Cob School,Public,300 East Putnam Avenue,Cos Cob,6807,Fairfield,2.6,0.3,2.9
Captain Nathan Hale Middle School,Public,1776 Main Street,Coventry,6238,Tolland,2.9,0.3,3.1
Coventry Grammar School,Public,3453 Main St,Coventry,6238,Tolland,0.0,0.0,0.0
Coventry High School,Public,78 Ripley Hill Rd.,Coventry,6238,Tolland,1.7,0.0,1.7
George Hersey Robertson Intermediate School,Public,227 Cross Street,Coventry,6238,Tolland,1.4,0.0,1.4
Hale Early Education Center,Public,1776 Main Street,Coventry,6238,Tolland,0.0,0.0,0.0
Adelbrook Learning Center,Non-public,60 Hicksville Rd,Cromwell,6416,Middlesex,0.0,0.0,0.0
Cromwell High School,Public,1 Donald Harris Drive,Cromwell,6416,Middlesex,1.3,0.6,1.9
Cromwell Middle School,Public,6 Mann Memorial Drive,Cromwell,6416,Middlesex,2.5,0.0,2.5
Edna C. Stevens School,Public,25 Court Street,Cromwell,6416,Middlesex,2.7,0.6,3.4
Woodside Intermediate School,Public,30 Woodside Road,Cromwell,6416,Middlesex,2.3,0.0,2.3
ACE,Public,26 Locust Ave,Danbury,6810,Fairfield,0.0,0.0,0.0
Broadview Middle School,Public,72 Hopital Avenue,Danbury,6810,Fairfield,0.1,0.0,0.1
Danbury High School,Public,43 Clapboard Ridge Road,Danbury,6811,Fairfield,0.7,0.2,1.0
Early Childhood Center Cottage Street,Public,17 Cottage St,Danbury,6810,Fairfield,0.0,0.0,0.0
Early Childhood Center Granville,Public,14 Granville Ave,Danbury,6810,Fairfield,0.0,0.0,0.0
Ellsworth Avenue Elementary School,Public,53 Ellsworth Avenue,Danbury,6810,Fairfield,0.0,0.0,0.0
Endeavor,Public,10 Crosby Ave,Danbury,6810,Fairfield,,,
Hayestown Avenue Schooll,Public,42 Tamarack Avenue,Danbury,6811,Fairfield,0.4,0.2,0.7
Hudson Country Montessori,Non-public,44A Shelter Rock Rd,Danbury,6810,Fairfield,3.6,0.0,3.6
Immaculate High School,Non-public,73 Southern Blvd,Danbury,6810,Fairfield,3.4,0.3,3.7
Immanuel Lutheran,Non-public,18 Clapboard Ridge Road,Danbury,6811,Fairfield,0.0,0.0,0.0
King Street Intermediate School,Public,151 South King Street,Danbury,6811,Fairfield,0.8,0.0,0.8
King Street Primary,Public,151 South King Street,Danbury,6811,Fairfield,1.0,0.2,1.2
Mill Ridge Primary,Public,49A High Ridge Rd,Danbury,6811,Fairfield,0.6,0.0,0.6
Morris Street  School,Public,28 Morris Street,Danbury,6810,Fairfield,0.0,0.0,0.0
Park Avenue School,Public,82 Park Avenue School,Danbury,6801,Fairfield,0.0,0.0,0.0
Pembroke Elementary,Public,34 1/2 Pembroke Road,Danbury,6810,Fairfield,0.0,0.0,0.0
Reach,Public,10 Crosby Street,Danbury,6810,Fairfield,,,
Rogers Park Middle School,Public,21 Memorial Drive,Danbury,6810,Fairfield,0.1,0.0,0.1
Shelter Rock Elementary School,Public,2 Crows Nest Lane,Danbury,6810,Fairfield,0.0,0.0,0.0
South Street Elementary School,Public,129 South Street,Danbury,6810,Fairfield,0.5,0.0,0.5
St Peters School,Non-public,98 Main Street,Danbury,6810,Fairfield,0.0,0.0,0.0
St. Gregory The Great School,Non-public,85 Great Plain Road,Danbury,6811,Fairfield,7.0,0.4,7.4
St. Joseph'S School,Non-public,370 Main Street,Danbury,6811,Fairfield,5.9,0.0,5.9
Stadley Rough Elementary,Public,25 Karen Rd,Danbury,6811,Fairfield,0.0,0.0,0.0
"Western Ct Academy For International Studies, Elementary School",Public,201 University Boulevard,Danbury,6811,Fairfield,3.4,0.9,4.3
Westside Middle School,Public,1 School Ridge Road,Danbury,6811,Fairfield,1.2,0.3,1.5
Wooster School,Non-public,91 Miry Brook Road,Danbury,6810,Fairfield,6.2,0.7,6.8
Great Plain Elementary School,Public,10 Stadley Rough Rd.,Danbury,6811,Fairfield,0.8,0.4,1.2
Joshua Center Northeast Cdt,Non-public,934 N. Main Street,Danielson,6239,Windham,,,
Quinebaug Middle College Magnet High School,Public,742 Upper Maple Street,Danielson,6239,Windham,0.6,0.0,0.6
Eastconn Northeast Regional Program,Public,79 Westfield Avenue,Danielson,6239,Windham,0.0,0.0,0.0
Darien High School,Public,80 High School Lane,Darien,6820,Fairfield,1.1,0.3,1.3
Hindley,Public,10 Nearwater Lane,Darien,6820,Fairfield,2.2,0.0,2.2
Holmes Elementary School,Public,18 Hoyt Street,Darien,6820,Fairfield,0.5,0.0,0.5
Middlesex Middle School,Public,204 Hollow Tree Ridge Road,Darien,6820,Fairfield,2.0,0.3,2.2
Ox Ridge Elementary School,Public,395 Mansfield Avenue,Darien,6820,Fairfield,2.1,0.2,2.3
Royle Elementary School,Public,133 Mansfield Avenue,Darien,6820,Fairfield,1.9,0.6,2.5
Tokeneke Elementary School,Public,7 Old Farm Road,Darien,6820,Fairfield,1.6,0.0,1.6
Killingly Central School,Public,60 Soap St,Dayville,6241,Windham,0.0,0.0,0.0
Deep River Elementary School,Public,12 River Street,Deep River,6417,Middlesex,2.6,0.0,2.6
John Winthrop Middle School,Public,1 Winthrop Road,Deep River,6417,Middlesex,2.1,2.1,4.2
Valley Regional High School,Public,256 Kelsey Hill Road,Deep River,6417,Middlesex,3.7,0.0,3.7
Bradley Elementary,Public,155 David Humphreys Rd,Derby,6418,New Haven,3.0,0.0,3.0
Derby High School,Public,75 Chatfield St,Derby,6418,New Haven,0.3,0.3,0.6
Derby Middle School,Public,73 Chatfield Street,Derby,6418,New Haven,0.7,0.0,0.7
Irving Elementary School,Public,9 Garden Place,Derby,6418,New Haven,1.0,0.0,1.0
Little Raiders University,Public,75 Chatfield St,Derby,6418,New Haven,1.6,3.3,4.9
RAISE Academy,Public,75 Chatfield St.,Derby,6418,New Haven,,,
St. Mary St. Michael,Non-public,14 Seymour Avenue,Derby,6418,New Haven,1.8,0.0,1.8
Coginchaug Regional High School,Public,135 Pickett Lane,Durham,6422,Middlesex,0.5,0.5,1.0
Frederick F Brewster Elementary School,Public,126 Tuttle Road,Durham,6422,Middlesex,2.1,0.4,2.6
Strong Middle School,Public,191 Main Street,Durham,6422,Middlesex,4.5,0.0,4.5
Richard D. Hubbard,Public,139 Grove St.,East Berlin,6023,Hartford,1.8,0.0,1.8
Carl Allgrove Elementary,Public,33 Turkey Hills Road,East Granby,6026,Hartford,0.0,0.0,0.0
East Granby High School,Public,95 South Main St,East Granby,6026,Hartford,1.2,0.0,1.2
East Granby Middle School,Public,95 South Main St,East Granby,6026,Hartford,2.6,0.0,2.6
The Franklin Academy,Non-public,140 River Road,East Haddam,6423,Middlesex,2.4,0.0,2.4
Center Elementary School,Public,7 Summit St,East Hampton,6424,Middlesex,2.3,1.1,3.4
East Hampton High School,Public,15 North Maple,East Hampton,6424,Middlesex,3.5,0.8,4.3
East Hampton Middle School,Public,19 Childs Rd.,East Hampton,6424,Middlesex,3.0,0.7,3.7
East Hampton Nursery School,Non-public,111 Main Street,East Hampton,6424,Middlesex,,,
Memorial Elementary,Public,20 Smith Street,East Hampton,6424,Middlesex,2.4,0.2,2.6
Academy Of Computer Science And Engineering Middle School,Public,337 East River Drive,East Hartford,6108,Hartford,0.5,0.3,0.8
Anna E Norris Elementary School,Public,40 Remington Road,East Hartford,6108,Hartford,2.9,0.0,2.9
CIBA,Public,857 Forbes Street,East Hartford,6118,Hartford,1.1,0.0,1.1
Connecticut River Academy,Public,9 Riverside Drive,East Hartford,6118,Hartford,0.6,0.0,0.6
Connecticut River Academy- Middle School,Non-public,195 Riverside Dr,East Hartford,6118,Hartford,0.0,0.5,0.5
Dr. John Langford Elementary School,Public,61 Alps Drive,East Hartford,6108,Hartford,1.6,0.0,1.6
East Hartford High School,Public,869 Forbes Street,East Hartford,6118,Hartford,0.9,0.0,0.9
East Hartford Middle School,Public,777 Burnside Ave,East Hartford,6108,Hartford,1.0,0.0,1.0
Franklin Mayberry Elementart School,Public,101 Great Hill Rd,East Hartford,6108,Hartford,0.0,0.0,0.0
Gov Wiliam Pitkin School,Public,330 Hills Street,East Hartford,6118,Hartford,0.0,0.0,0.0
Hockanum,Public,191 Main Stree,East Hartford,6118,Hartford,0.0,0.0,0.0
Joseph O. Goodwin Elementary School,Public,1235 Forbes St.,East Hartford,6118,Hartford,2.3,1.7,4.0
Pathways Academy Of Technology And Design,Public,2 Pent Road,East Hartford,6118,Hartford,0.3,0.8,1.0
Riverside Magnet School,Public,29 Willowbrook Rd.,East Hartford,6118,Hartford,1.1,1.1,2.2
Robert J. O'Brien Elementary School,Public,56 Farm Drive,East Hartford,6108,Hartford,0.9,0.0,0.9
Silver Lane Elementary,Public,15 Mercer Ave,East Hartford,6108,Hartford,0.9,0.0,0.9
Sunset Ridge Middle School,Public,450 Forbes Street,East Hartford,6118,Hartford,0.3,0.9,1.2
Synergy Alternative High School Program,Public,40 Butternut Drive,East Hartford,6118,Hartford,1.0,0.0,1.0
Thomas S. O'Connell Elementary School,Public,305 May Road,East Hartford,6118,Hartford,0.4,0.0,0.4
Woodland School,Public,110 Long Hill Drive,East Hartford,6108,Hartford,0.0,0.0,0.0
CREC Polaris,Public,474 School St,East Hartford,6108,Hartford,0.0,0.0,0.0
Hartland School,Public,30 South Road,East Hartland,6027,Hartford,0.0,0.0,0.0
Deer Run Elementary,Public,311 Foxon Road,East Haven,6512,New Haven,0.4,0.9,1.3
DH Ferrara School,Public,22 Maynard Rd.,East Haven,6513,New Haven,0.6,0.0,0.6
East Haven Academy,Public,67 Hudson Street,East Haven,6512,New Haven,0.3,0.0,0.3
East Haven High School,Public,35 Wheelbarrow Lane,East Haven,6513,New Haven,0.5,0.0,0.5
Grove J Tuttle School,Public,108 Prospect Road,East Haven,6512,New Haven,0.4,0.0,0.4
Joseph Melillo Middle School,Public,67 Hudson Street,East Haven,6512,New Haven,0.4,0.0,0.4
Momauguin,Public,99 Cosey Beach Rd,East Haven,6512,New Haven,0.6,0.0,0.6
Overbrook Early Learning Center,Public,54 Gerrish Ave,East Haven,6512,New Haven,0.0,0.0,0.0
Pathways Academy,Public,35 Bishop St,East Haven,6512,New Haven,,,
East Lyme High School,Public,30 Chesterfield Road,East Lyme,6333,New London,0.4,0.9,1.3
Flanders Elementary School,Public,167 Boston Post Road,East Lyme,6333,New London,4.7,0.0,4.7
LEARN Transition Academy,Public,132 Boston Post Rd,East Lyme,6333,New London,,,
East Windsor High School,Public,76 South Main Street,East Windsor,6088,Hartford,0.7,0.3,1.0
Eastford Elementary School,Public,12 Westford Road,Eastford,6242,Windham,5.3,1.3,6.6
Helen Keller Middle School,Public,360 Sport Hill Road,Easton,6612,Fairfield,4.4,0.0,4.4
Samuel Staples Elementary School,Public,515 Morehouse Road,Easton,6612,Fairfield,4.1,0.7,4.7
Center Elementary School,Public,49 Main St.,Ellington,6029,Tolland,2.1,0.4,2.6
Ellington High School,Public,37 Maple Street,Ellington,6029,Tolland,1.8,1.2,3.0
Windermere School,Public,2 Abbott Rd,Ellington,6029,Tolland,2.6,0.2,2.8
Crystal Lake Elementary School,Public,59 South Rd,Ellington,6074,Hartford,4.6,0.3,4.9
Ellington Middle School,Public,46 Middle Butcher Road,Ellington,6029,Tolland,4.0,0.5,4.5
Civic Leadership High School,Public,1617 King St,Enfield,6082,Hartford,0.0,0.0,0.0
Eagle Academy,Public,1270 Enfield St.,Enfield,6082,Hartford,,,
Edgar H. Parkman School,Public,165 Weymouth Rd,Enfield,6082,Hartford,0.7,0.0,0.7
Enfield Street School,Public,1318 Enfield Street,Enfield,6082,Hartford,0.0,0.3,0.3
Hazardville Memorial Elementary,Public,68 North Maple Street,Enfield,6082,Hartford,0.3,0.0,0.3
Henry Barnard,Public,27 Shaker Road,Enfield,6078,Hartford,2.4,0.2,2.7
John F. Kennedy Middle School,Public,155 Raffia Road,Enfield,6082,Hartford,1.0,0.2,1.2
Joshua Center Enfield CDT,Non-public,"72 Shaker Road, Suite 7",Enfield,6082,Hartford,,,
Prudence Crandall School,Public,150Brainard Road,Enfield,6082,Hartford,0.0,0.0,0.0
St. Bernard,Non-public,232 Pearl St.,Enfield,6082,Hartford,2.8,2.8,5.6
Stowe Early Learning Center,Public,117 Post Office Rd,Enfield,6082,Hartford,0.0,0.0,0.0
Eli Whitney Elementary School,Public,94 Middle Rd.,Enfield,6082,Hartford,0.9,0.0,0.9
Enfield High School,Public,1264 Enfield Street,Enfield,6082,Hartford,0.5,0.3,0.8
Enfield Montessori,Non-public,1325 Enfield St.,Enfield,6082,Hartford,3.2,0.5,3.7
Burr Elementary School,Public,1960 Burr Street,Fairfield,6824,Fairfield,5.3,0.3,5.6
Dwight Elementary School,Public,1600 Redding Road,Fairfield,6824,Fairfield,4.4,0.0,4.4
Early Childhood Center,Public,755 Melville Avenue,Fairfield,6825,Fairfield,0.0,0.8,0.8
Fairfield Country Day School,Non-public,2970 Bronson Road,Fairfield,6824,Fairfield,2.0,0.0,2.0
Fairfield Ludlowe High School,Public,785 Unquowa Road,Fairfield,6824,Fairfield,0.7,0.1,0.8
Fairfield Preparatory High School,Non-public,1073 North Benson Rd,Fairfield,6824,Fairfield,2.4,0.3,2.6
Fairfield Warde High School,Public,75 Melville Ave,Fairfield,6825,Fairfield,1.6,0.1,1.6
Fairfield Woods Middle School,Public,1115 Fairfield Woods Road,Fairfield,6825,Fairfield,4.3,0.7,5.0
Fusion Academy Fairfield,Non-public,777 Commerce Drive Suite 100,Fairfield,6825,Fairfield,0.0,0.0,0.0
Holland Hill,Public,105 Meadowcroft Road,Fairfield,6824,Fairfield,3.2,0.5,3.7
Jennings Elementary School,Public,31 Palm Drive,Fairfield,6825,Fairfield,1.1,0.0,1.1
Mckinley Elementaty,Public,60 Thompson Street,Fairfield,6825,Fairfield,2.7,0.0,2.7
North Stratfield Elementary School,Public,190 Putting Green Road,Fairfield,6825,Fairfield,0.7,0.2,0.9
Notre Dame High School,Non-public,"220 Jefferson St,",Fairfield,6824,Fairfield,0.8,0.0,0.8
Osborn Hill Elementary School,Public,760 Stillson Road,Fairfield,6824,Fairfield,0.9,0.0,0.9
Riverfield Elementary,Public,1625 Mill Plain Road,Fairfield,6824,Fairfield,0.5,1.0,1.5
Roger Ludlowe Middle School,Public,689 Unquowa Road,Fairfield,6824,Fairfield,3.9,0.3,4.2
Roger Sherman Elementary,Public,250 Fern Street,Fairfield,6824,Fairfield,2.8,0.8,3.5
Saint Thomas Aquinas Catholic School,Non-public,1719 Post Road,Fairfield,6824,Fairfield,0.9,0.3,1.2
St. Catherine Academy,Non-public,760 Tahmore Drive,Fairfield,6825,Fairfield,,,
Stratfield Elementary,Public,1407 Melville Ave,Fairfield,6825,Fairfield,0.5,0.0,0.5
The Unquowa School,Non-public,981 Stratfield Rd,Fairfield,6825,Fairfield,11.3,0.7,11.9
Tomlinson Middle School,Public,200 Unquowa Rd,Fairfield,6824,Fairfield,2.7,0.0,2.7
Assumption Catholic School,Non-public,605 Stratfield Rd,Fairfield,6825,Fairfield,1.2,0.0,1.2
Housatonic Valley Regional High School,Public,246 Warren Turnpike Road,Falls Village,6031,Litchfield,2.2,0.0,2.2
Lee Kellogg School,Public,47 Main Street,Falls Village,6031,Litchfield,1.3,0.0,1.3
East Farms Elementary School,Public,25 Wolf Pit Road,Farmington,6032,Hartford,1.9,0.0,1.9
Farmington High School,Public,10 Montieth Dr.,Farmington,6032,Hartford,1.5,0.3,1.8
Miss Porter'S School,Non-public,60 Main Street,Farmington,6032,Hartford,0.0,0.0,0.0
Noah Wallace School,Public,2 School Street,Farmington,6032,Hartford,1.0,0.2,1.2
West Woods Upper Elementary School,Public,50 Judson Lane,Farmington,6032,Hartford,2.2,0.6,2.8
Franklin Elementary School,Public,206 Pond Rd,Franklin,6254,New London,8.6,8.6,17.2
Green Valley School,Non-public,206 Pond Road,Franklin,6254,New London,,,
Gales Ferry Elementary School,Public,1858 Rt 12,Gales Ferry,6335,New London,0.9,0.0,0.9
Juliet W. Long School,Public,1854 Rt 12,Gales Ferry,6335,New London,1.5,0.4,1.9
Ledyard Middle School,Public,1852 Route 12,Gales Ferry,6335,New London,2.1,0.8,2.8
Buttonball Lane Elementary School,Public,376 Buttonball Lane,Glastonbury,6033,Hartford,0.9,0.7,1.6
Eastbury Programs,Public,1389 Neipsic Road,Glastonbury,6033,Hartford,3.0,0.0,3.0
Gideon Welles School,Public,1029 Neipsic Road,Glastonbury,6033,Hartford,1.0,0.0,1.0
Glastonbury East Hartford Magnet School,Public,95 Oak St,Glastonbury,6033,Hartford,0.9,0.2,1.1
Glastonbury High School,Public,330 Hubbard St.,Glastonbury,6033,Hartford,1.7,0.1,1.7
Hebron Avenue School,Public,1363 Hebron Avenue,Glastonbury,6033,Hartford,2.2,0.0,2.2
Naubuc Elementary,Public,84 Griswold St,Glastonbury,6033,Hartford,1.4,0.0,1.4
Smith Middle School,Public,216 Addison Road,Glastonbury,6033,Hartford,0.9,0.0,0.9
Goshen Center School,Public,50 North Street,Goshen,6756,Litchfield,4.9,0.7,5.6
Granby Memorial High School,Public,54 North Granby Road,Granby,6035,Hartford,2.4,0.0,2.4
Granby Memorial Middle School,Public,321 Salmon Brook St,Granby,6035,Hartford,2.5,0.5,3.0
Kelly Lane Primary School,Public,60 Kelly Lane,Granby,6035,Hartford,2.0,0.0,2.0
Wells Road Intermediate School,Public,134 Wells Road,Granby,6035,Hartford,2.4,0.3,2.6
Central Middle School,Public,9 Indian Rock Lane,Greenwich,6830,Fairfield,1.6,0.0,1.6
Eastern Middle School,Public,51 Hendrie Avenue,Greenwich,6878,Fairfield,0.5,0.0,0.5
Glenville Elementary School,Public,33 Riversville Rd,Greenwich,6831,Fairfield,3.1,0.5,3.6
Greenwich Academy,Non-public,200 North Maple Ave,Greenwich,6830,Fairfield,0.5,0.2,0.7
Greenwich Catholic School,Non-public,471 North Street,Greenwich,6830,Fairfield,9.0,0.9,9.9
Greenwich Country Day School,Non-public,401 Old Church Road,Greenwich,6830,Fairfield,0.3,0.5,0.8
Hamilton Avenue,Public,184 Hamilton Avenue,Greenwich,6830,Fairfield,1.7,0.7,2.4
Julian Curtiss School,Public,180 East Elm Street,Greenwich,6830,Fairfield,2.9,0.4,3.3
New Lebanon School,Public,25 Mead Ave,Greenwich,6830,Fairfield,0.9,0.0,0.9
North Street School,Public,381 North Street,Greenwich,6830,Fairfield,2.8,0.0,2.8
Parkway,Public,141 Lower Cross Rd,Greenwich,6831,Fairfield,0.4,0.0,0.4
Sacred Heart Greenwich,Non-public,1177 King Street,Greenwich,6831,Fairfield,1.0,0.5,1.5
Western Middle School,Public,1 Western Junior Highway,Greenwich,6830,Fairfield,1.3,0.0,1.3
Whitby School,Non-public,969 Lake Avenue,Greenwich,6831,Fairfield,4.3,1.0,5.2
Eagle Hill School,Non-public,45 Glenville Rd,Greenwich,6831,Fairfield,0.8,0.8,1.5
Greenwich High School,Public,10 Hillside Road,Greenwich,6830,Fairfield,1.0,0.1,1.0
Griswold Alternative School,Public,1553 Glasgo Ave,Griswold,6351,New London,,,
Griswold High School,Public,267 Slater Ave.,Griswold,6351,New London,0.5,0.0,0.5
Griswold Middle School,Public,211 Slater Avenue,Griswold,6351,New London,3.0,0.2,3.2
Catherine Kolnaski,Public,500 Poqquonnock Road,Groton,6340,New London,1.4,0.0,1.4
Charles Barnum Discovery Magnet School,Public,68 Briar Hill Rd,Groton,6340,New London,1.5,0.6,2.1
Marine Science Magnet High School,Public,130 Shennecossett Rd,Groton,6340,New London,2.6,0.7,3.4
Robert E Fitch High School,Public,101 Groton Long Pt Road,Groton,6340,New London,0.9,0.0,0.9
Sacred Heart School,Non-public,50 Sacred Heart Drive,Groton,6340,New London,1.5,0.7,2.2
Thames River Magnet School,Public,25- Brandegee Ave,Groton,6340,New London,1.7,0.2,1.9
Groton Middle School,Public,35 Groton Long Point Rd,Groton,6340,New London,1.2,0.3,1.6
A.W. Cox,Public,143 Three Mile Course,Guilford,6437,New Haven,0.8,0.8,1.5
Adams Middle School,Public,233 Church Street,Guilford,6437,New Haven,2.7,0.6,3.3
Calvin Leete Elementary School,Public,280 South Union Street,Guilford,6437,New Haven,0.0,0.0,0.0
Guilford High School,Public,605 New England Road,Guilford,6437,New Haven,2.0,0.7,2.7
Guilford Lakes School,Public,40 Maupas Road,Guilford,6437,New Haven,1.4,1.2,2.6
Melissa Jones Elementary,Public,181 Ledgehill Road,Guilford,6437,New Haven,0.7,0.0,0.7
ACES Whitney High School North,Public,130 B Leeder Hill Drive,Hamden,6517,New Haven,0.0,0.0,0.0
Alice Peck Early Learning Center,Public,35 Hillfield Rd,Hamden,6518,New Haven,0.0,0.0,0.0
Bear Path,Public,10 Kirk Rd,Hamden,6514,New Haven,0.2,0.0,0.2
Church Street School,Public,95 Church Street School,Hamden,6514,New Haven,0.4,0.0,0.4
Eli Whitney Technical High School,Public,100 Fairview Ave,Hamden,6514,New Haven,0.7,0.0,0.7
Hamden Hall Country Day School,Non-public,1108 Whitney Ave,Hamden,6517,New Haven,1.8,1.3,3.0
Hamden High School,Public,2040 Dixwell Ave,Hamden,6611,New Haven,0.8,0.0,0.8
Hamden Middle School,Public,2623 Dixwell Ave.,Hamden,6518,New Haven,1.0,1.0,1.9
Ridge Hill,Public,120 Carew Road,Hamden,6517,New Haven,1.0,0.3,1.3
Sacred Heart Academy,Non-public,265 Benham Street,Hamden,6514,New Haven,1.4,0.0,1.4
Shepherd Glen School,Public,1 Skiff St,Hamden,6514,New Haven,0.0,0.0,0.0
St Rita School,Non-public,1601 Whitney Ave,Hamden,6517,New Haven,0.8,0.3,1.1
West Woods School,Public,350 West Todd Rd,Hamden,6518,New Haven,1.0,0.0,1.0
Whitney Academy,Public,130-A Leeder Hill Dr,Hamden,6517,New Haven,0.7,0.0,0.7
Hampton Elementary School,Public,380 Main Street,Hampton,6247,Windham,9.1,1.5,10.6
Achievement First Hartford,Non-public,305 Greenfield Street,Hartford,6112,Hartford,0.3,0.0,0.3
Alfred E. Burr Middle School,Public,400 Wethersfield Ave,Hartford,6114,Hartford,0.0,0.7,0.7
Betances Learning Lab,Public,42 Charter Oak Avenue,Hartford,6106,Hartford,0.8,0.0,0.8
Betances Stem Magnet,Public,400 Wethersfield Ave,Hartford,6114,Hartford,0.0,1.0,1.0
Breakthrough Magnet North,Public,25 Ridgefield Street,Hartford,6002,Hartford,0.3,0.0,0.3
Breakthrough Magnet South School,Public,290 Brookfield Street,Hartford,6106,Hartford,0.6,0.3,0.9
Buckeley H.S. North,Public,395 Lyme Street,Hartford,6112,Hartford,0.0,0.0,0.0
Burns Latino Studies Academy,Public,195 Putnam St.,Hartford,6010,Hartford,0.0,0.0,0.0
Capital Prep Magnet School,Public,1304 Main Street,Hartford,6103,Hartford,0.9,0.0,0.9
Classical Magnet,Public,85 Woodland Street,Hartford,6105,Hartford,0.0,0.0,0.0
Covenant Preparatory School,Non-public,474 Woodland Street,Hartford,6112,Hartford,8.8,0.0,8.8
Dr. Martin Luther King Middle School,Public,25 Ridgefield Street,Hartford,6112,Hartford,0.0,0.0,0.0
Dwight-Bellizzi Dual Language Academy,Public,215 South Street,Hartford,6114,Hartford,0.0,0.0,0.0
Eagle House,Non-public,1680 Albany Ave,Hartford,6105,Hartford,,,
Environmental Sciences @ Mary Hooker,Public,440 Broadview Terrace,Hartford,6106,Hartford,0.9,0.0,0.9
Expeditionary Learning Academy At Moylan,Public,101 Catherine Street,Hartford,6106,Hartford,0.0,0.3,0.3
Global Communication Academy,Public,85 Edwards Street,Hartford,6120,Hartford,0.0,0.0,0.0
Grace Academy,Non-public,457 Main Street,Hartford,6103,Hartford,1.9,0.0,1.9
Grace S. Webb School,Non-public,200 Retreat Ave,Hartford,6114,Hartford,0.0,0.0,0.0
Hartford Magnet Trinity College Academy,Public,53 Vernon Street,Hartford,6106,Hartford,0.4,0.0,0.4
Hartford Pre-K Magnet North,Non-public,85 Edwards St,Hartford,6120,Hartford,0.0,0.0,0.0
Hartford Public High School,Public,55 Forest St,Hartford,6105,Hartford,0.0,0.0,0.0
Jumoke Academy Hartford Conservatory,Non-public,875 Asylum Ave,Hartford,6105,Hartford,0.0,0.0,0.0
Kennelly,Public,180 White Street,Hartford,6114,Hartford,0.0,0.0,0.0
Kinsella High School,Public,415 Granby Street,Hartford,6120,Hartford,0.8,0.0,0.8
Kinsella Magnet School,Public,65 Van Block Ave.,Hartford,6106,Hartford,0.0,0.0,0.0
Maria C. Colon Sanchez Elementary School,Public,176 Babcock Street,Hartford,6106,Hartford,0.0,0.0,0.0
Mcdonough Middle School,Public,111 Hillside Avenue,Hartford,6106,Hartford,0.3,0.0,0.3
MD Fox,Public,470 Maple Aveenue,Hartford,6114,Hartford,0.0,0.0,0.0
Montessori Magnet @Annie Fisher,Public,280 Plainfield Street,Hartford,6112,Hartford,1.5,0.0,1.5
Montessori Magnet At Batchelder,Public,757 New Britain Ave,Hartford,6106,Hartford,3.1,0.0,3.1
Noah Webster Microsociety,Public,5 Cone St.,Hartford,6105,Hartford,0.2,0.0,0.2
Northeastern Adventist Academy Hartford Campus,Non-public,474 Woodland Street,Hartford,6112,Hartford,4.3,0.0,4.3
Parkville Community School,Public,47 New Park Avenue,Hartford,6105,Hartford,0.2,0.0,0.2
Renzulli Academy,Public,85 Woodland Street,Hartford,6105,Hartford,0.8,0.0,0.8
SAND,Public,1750 Main Street,Hartford,6037,Hartford,0.3,0.0,0.3
Sara J. Rawson Elementary School,Public,260 Holcomb Street,Hartford,6112,Hartford,0.0,0.4,0.4
Sport And Medical Sciences Academy,Public,280 Huyshope Ave.,Hartford,6106,Hartford,0.0,0.0,0.0
STEM Magnet @Annie Fisher,Public,280 Plainfield Street,Hartford,6112,Hartford,0.3,0.0,0.3
Thirman L. Milner Middle School,Public,150 Tower Avenue,Hartford,6120,Hartford,0.0,0.0,0.0
Trinity Academy,Non-public,120 Sigourney Street,Hartford,6105,Hartford,8.3,0.0,8.3
University High School,Public,351 Mark Twain Dr,Hartford,6112,Hartford,0.8,0.0,0.8
Watkinson,Non-public,180 Bloomfield Avenue,Hartford,6105,Hartford,3.7,0.0,3.7
Weaver High School,Public,415 Granby Street,Hartford,6120,Hartford,0.3,0.0,0.3
West Middle School,Public,44 Niles Street,Hartford,6105,Hartford,0.0,0.0,0.0
Wish Museum School,Public,104 Vine Street,Hartford,6112,Hartford,0.0,0.0,0.0
CREC Montessori Magnet,Public,1460 Broad Street,Hartford,6085,Hartford,3.5,0.0,3.5
High Road School Of Hartford High School,Non-public,245 Locust St,Hartford,6114,Hartford,0.0,0.0,0.0
High Road School Of Hartford Primary/Middle,Non-public,757 New Britain Avenue,Hartford,6106,Hartford,2.9,0.0,2.9
Jumoke Academy,Public,250 Blue Hills Ave,Hartford,6112,Hartford,0.0,0.0,0.0
Oak Hill,Non-public,120 Holcomb St,Hartford,6029,Hartford,4.7,0.0,4.7
Harwinton Consolidated School,Public,115 Litchfield Road,Harwinton,6791,Litchfield,1.8,0.0,1.8
Gilead Hill School,Public,580 Gilead Street,Hebron,6248,Tolland,2.0,0.3,2.3
Hebron Elementary School,Public,92 Church Street,Hebron,6248,Tolland,4.2,0.3,4.5
Regional School District 8,Public,25 Rham Rd,Hebron,6248,Tolland,4.6,0.5,5.1
RHAM High School,Public,85 Wall St,Hebron,6248,New London,3.5,0.2,3.8
Burr Elementary,Public,792 Killingworth Road,Higganum,6441,Middlesex,3.6,0.0,3.6
Haddam-Killingworth High School,Public,95 Little City Rd,Higganum,6441,Middlesex,0.9,0.2,1.1
Griswold Elementary School,Public,303 Slater Ave,Jewett City,6351,New London,2.4,0.6,3.0
Mary E. Griswold Elementary School,Public,133 Heather Lane,Kensington,6037,Hartford,5.7,0.4,6.1
Saint Paul School,Non-public,461 Alling Street,Kensington,6037,Hartford,8.7,0.0,8.7
Kent Center School,Public,9 Judd Ave,Kent,6757,Litchfield,1.5,0.0,1.5
Kent School,Non-public,1 Macedonia Road,Kent,6757,Litchfield,0.0,0.2,0.2
Marvelwood School,Non-public,476 Skiff Mountain Road,Kent,6757,Litchfield,1.9,0.0,1.9
Killingly Intermidiate School,Public,1599 Upper Maple Street,Killingly,6241,Windham,2.9,0.3,3.2
Killingly Memorial School,Public,339 Main Street,Killingly,6239,Windham,4.5,0.6,5.1
Killingly High School,Public,226 Putnam Pike,Killingly,6239,Windham,2.0,0.5,2.6
Haddam-Killingworth Intermediate School,Public,451 Route 81,Killingworth,6419,Middlesex,1.2,0.4,1.5
Haddam-Killingworth Middle School,Public,451 Route 81,Killingworth,6419,Middlesex,2.0,0.0,2.0
Killingworth Elementary School,Public,340 Ct-81,Killingworth,6419,Middlesex,1.5,0.4,1.8
The Hotchkiss School,Non-public,11 Interlaken Road,Lakeville,6039,Litchfield,0.0,0.2,0.2
Lebanon Elementary School,Public,476 Exeter Rd,Lebanon,6249,New London,0.8,0.8,1.5
Lyman Memorial High School,Public,917 Exeter Road,Lebanon,6249,New London,3.7,0.0,3.7
Lebanon Middle School,Public,891 Exeter Road,Lebanon,6249,New London,6.4,0.0,6.4
Gallup Hill School,Public,169 Gallup Hill Road,Ledyard,6339,New London,0.5,0.0,0.5
Ledyard High School,Public,24 Gallup Hill Rd,Ledyard,6339,New London,0.5,0.0,0.5
Lisbon Central School,Public,109 Bergendahl Drive,Lisbon,6351,New London,1.8,0.2,2.1
Center School,Public,125 West Street,Litchfield,6759,Litchfield,4.6,0.4,4.9
Litchfield Intermediate School,Public,35 Plumb Hill Road,Litchfield,6759,Litchfield,7.4,0.0,7.4
Litchfield Middle/High School,Public,14 Plumb Hill Rd.,Litchfield,6759,Litchfield,2.7,0.3,3.0
Wamogo Regional School District 6,Public,98 Wamogo Rd,Litchfield,6759,Litchfield,3.1,0.6,3.7
Lyme Consolidated School,Public,478 Hamburg Rd,Lyme,6371,New London,1.4,0.0,1.4
Daniel Hand High School,Public,286 Green Hill Road,Madison,6443,New Haven,1.6,0.1,1.8
Grove School,Non-public,175 Copse Rd,Madison,6443,New Haven,0.0,0.0,0.0
Ryerson,Public,982 Durham Road,Madison,6443,New Haven,1.2,0.0,1.2
The Country School,Non-public,341 Opening Hill Road,Madison,6443,New Haven,1.9,0.0,1.9
Town Campus Learning Center,Public,10 Campus Drive,Madison,6443,New Haven,0.0,0.0,0.0
W.C. Polson Ms,Public,302 Green Hill Road,Madison,6443,New Haven,1.9,0.6,2.5
Jeffrey,Public,331 Copse Rd,Madison,6443,New Haven,1.6,0.3,1.9
Brown Intermediate School,Public,980 Durham Rd,Madisoon,6443,New Haven,5.1,0.0,5.1
Bennet Academy,Public,1151 Main Street,Manchester,6040,Hartford,0.5,0.1,0.6
Bentley Alternative Education,Public,134 Middle Turnpike East,Manchester,6040,Hartford,0.0,0.0,0.0
Bowers,Public,141 Princeton Street,Manchester,6042,Hartford,1.3,0.3,1.6
Community Child Guidance Clinic School,Non-public,317 North Main St,Manchester,6040,Hartford,0.0,0.0,0.0
Cornerstone Christian School,Non-public,236 Main St.,Manchester,6042,Hartford,4.8,0.6,5.4
East Catholic High School,Non-public,115 New State Road,Manchester,6042,Hartford,1.4,0.2,1.6
Great Path Academy,Public,60 Bidwell St,Manchester,6045,Hartford,0.0,0.6,0.6
Highland Park Elementary School,Public,397 Porter Street,Manchester,6040,Hartford,0.3,0.3,0.6
Illing Middle School,Public,227 East Middle Turnpike,Manchester,6040,Hartford,0.8,0.1,0.9
Keeney Street Elementary School,Public,179 Keeney Street,Manchester,6040,Hartford,0.9,0.0,0.9
Manchester High School,Public,134 East Middle Tpke.,Manchester,6040,Hartford,0.2,0.4,0.5
Manchester Memorial Hospital Clinical Day School,Non-public,71 Haynes St.,Manchester,6040,Hartford,5.0,0.0,5.0
Manchester Middle Academy,Public,94 Cedar Street,Manchester,6074,Hartford,0.0,0.0,0.0
Manchester Preschool Center,Public,60 Washington Street,Manchester,6042,Hartford,0.0,0.0,0.0
Manchester Regional Academy,Public,665 Wetherell St.,Manchester,6040,Hartford,0.0,0.0,0.0
Martin Elementary,Public,140 Dartmouth Rd.,Manchester,6040,Hartford,0.8,0.0,0.8
Odyssey Community School,Public,579 West Middle Tpke.,Manchester,6040,Hartford,1.4,0.0,1.4
Saint Bridget School,Non-public,74 Main St.,Manchester,6042,Hartford,0.5,0.0,0.5
Saint James School,Non-public,73 Park Street,Manchester,6040,Hartford,4.2,0.0,4.2
Verplanck,Public,126 Olcott St,Manchester,6066,Hartford,0.7,0.0,0.7
Waddell Elementary School,Public,163 Broad Street,Manchester,6042,Hartford,1.7,0.0,1.7
Buckley Elementary,Public,250 Vernon Street,Manchester,6042,Hartford,1.7,0.0,1.7
Oak Grove Montessori,Non-public,132 Pleasant Valley Road,Mansfield,6250,Tolland,6.4,0.0,6.4
Mansfield Elementary School,Public,134 Warrenville Rd,Mansfield Center,6250,Tolland,1.8,0.0,1.8
Elmer Thienes-Mary Hall Elementary,Public,25 School Dr.,Marlborough,6447,Hartford,3.7,0.0,3.7
Benjamin Franklin Elementary School,Public,426 West Main Street,Meriden,6450,New Haven,2.3,0.0,2.3
Casimir Pulaski,Public,100 Clearview Ave,Meriden,6450,New Haven,0.7,0.5,1.2
Edison Middle School,Public,1355 North Broad Street,Meriden,6450,New Haven,0.9,0.0,0.9
Francis T. Maloney High School,Public,121 Gravel Street,Meriden,6450,New Haven,0.5,0.2,0.6
Horace C Wilcox Technical High School,Public,298 Oregon Road,Meriden,6451,New Haven,1.6,0.1,1.7
Israel Putnam Elementary School,Public,133 Parker Ave,Meriden,6450,New Haven,1.8,0.4,2.2
John Barry Elementary,Public,124 Columbia Street,Meriden,6451,New Haven,1.6,0.0,1.6
Meliora Academy,Non-public,470 Murdock Ave,Meriden,6450,Hartford,11.5,3.8,15.4
Midstate Christian Academy,Non-public,139 Charles Strret,Meriden,6450,New Haven,44.3,0.0,44.3
Nathan Hale Elementary School,Public,277 Atkins St Ext.,Meriden,6450,New Haven,0.4,0.0,0.4
Orville H. Platt High School,Public,220 Coe Ave,Meriden,6451,New Haven,0.4,0.0,0.4
Roger Sherman,Public,64 North Pearl Street,Meriden,6450,New Haven,0.6,0.0,0.6
Thomas Hooker Elementary School,Public,70 Overlook Rd,Meriden,6450,New Haven,0.3,0.0,0.3
Long Meadow Elementary School,Public,65 N Benson Rd,Middlebury,6762,New Haven,2.9,0.4,3.3
Memorial Middle School,Public,1 Memorial Drive,Middlebury,6762,New Haven,2.4,0.0,2.4
Middlebury Elementary School,Public,550 Whittemore Rd.,Middlebury,6762,New Haven,1.9,0.0,1.9
John Lyman Elementary,Public,106 Way Road,Middlefield,6455,Middlesex,3.8,0.0,3.8
Middlefield Memorial School,Public,124 Hubbard Street,Middlefield,6455,Middlesex,4.7,0.0,4.7
The Independent Day School,Non-public,115 Laurel Brook Rd,Middlefield,6455,Middlesex,5.4,0.0,5.4
Beman Middle School,Public,1 Wildermans Way,Middletown,6457,Middlesex,0.2,0.0,0.2
Bielefield Elementary,Public,70 Maynard St,Middletown,6457,Middlesex,0.7,0.0,0.7
Farm Hill,Public,390 Ridge Rd,Middletown,6457,Middlesex,0.7,0.0,0.7
Macdonough Elementary School,Public,66 Spring Street,Middletown,6457,Middlesex,0.4,0.0,0.4
Mercy High School,Non-public,1740 Randolph Road,Middletown,6457,Middlesex,1.0,1.3,2.3
Middletown High School,Public,200 Larosa Lane,Middletown,6457,Middlesex,0.7,0.1,0.8
Snow Elementary School,Public,299 Wadsworth Street,Middletown,6457,Middlesex,0.0,0.0,0.0
Spencer Elementary,Public,206 Westfield St,Middletown,6457,Middlesex,0.4,0.4,0.8
St. John Paul Ii,Non-public,87 S. Main St,Middletown,6457,Middlesex,1.5,0.0,1.5
Van Buren Moody Elementary,Public,300 Country Club Road,Middletown,6457,Middlesex,0.9,0.4,1.3
Vinal Technical High School,Public,60 Daniels St,Middletown,6457,Middlesex,1.9,0.0,1.9
Wesley Elementary School,Public,10 Wesleyan Hills Rd,Middletown,6457,Middlesex,0.9,0.0,0.9
Xavier High School,Non-public,181 Randolph Road,Middletown,6457,Middlesex,2.4,0.0,2.4
Lawrence Elementary,Public,Kaplan Drive,Middletown,6457,Middlesex,0.3,0.0,0.3
"Academy Of Our Lady Of Mercy, Lauralton Hall",Non-public,200 High St.,Milford,6460,New Haven,1.8,0.4,2.2
Calf Pen Meadow,Public,395 Welch'S Point Road,Milford,6460,New Haven,6.4,0.4,6.8
Charles F. Hayden School,Non-public,528 Wheelers Farms Rd,Milford,6460,Fairfield,0.0,0.0,0.0
East Shore Middle School,Public,240 Chapel Street,Milford,6460,New Haven,3.9,0.0,3.9
Harborside Middle School,Public,175 High Street,Milford,6460,New Haven,4.2,0.0,4.2
John F. Kennedy School,Public,404 West Avenue,Milford,6461,New Haven,3.2,0.6,3.8
Jonathan Law Hs,Public,25 Lansdale Ave,Milford,6460,New Haven,1.7,0.1,1.8
Joseph A. Foran High School,Public,80 Foran Road,Milford,6460,New Haven,1.4,0.3,1.7
Live Oaks,Public,575 Merwin Avenue,Milford,6460,New Haven,2.8,0.0,2.8
Meadowside Elementary School,Public,80 Seemans Lane,Milford,6460,New Haven,1.5,0.4,1.9
Milestones Behavioral Services,Non-public,95 Wolf Harbor Rd,Milford,6461,New Haven,13.3,1.7,15.0
Orange Avenue School,Public,260 Orange Avenue,Milford,6461,New Haven,1.7,0.0,1.7
Orchard Hills School,Public,185 Marino Drive,Milford,6460,New Haven,2.0,0.6,2.5
Platt Technical High School,Public,600 Orange Avenue,Milford,6460,New Haven,0.3,0.1,0.4
Pumpkin Delight Elementary School,Public,24 Art Street,Milford,6460,New Haven,2.6,0.4,3.0
St. Mary'S School,Non-public,72 Gulf Street,Milford,6460,New Haven,5.5,0.3,5.8
The Academy,Public,140 Gulf St.,Milford,6460,New Haven,0.0,0.0,0.0
The Foundation School,Non-public,91 Woodmont Road,Milford,6460,New Haven,,,
West Shore Middle School,Public,70 Kay Avenue,Milford,6460,New Haven,0.9,0.0,0.9
Mathewson,Public,466 W River Street,Milford,6461,New Haven,2.2,0.0,2.2
Fawn Hollow Elementary School,Public,345 Fan Hill Road,Monroe,6468,Fairfield,3.9,0.3,4.2
Jockey Hollow Middle School,Public,365 Fan Hill Rd,Monroe,6468,Fairfield,4.9,0.2,5.0
Masuk High School/Jockey Hollow Stem,Public,1040 Monroe Turnpike,Monroe,6468,Fairfield,4.1,0.5,4.6
Stepney Elementary School,Public,180 Old Newtown Rd,Monroe,6468,Fairfield,2.6,0.2,2.9
PBL & Pathways Campus,Public,238 Maple Avenue,Montville,6353,New London,3.2,0.0,3.2
East Haddam Elementary School,Public,45 Joe Williams Road,Moodus,6469,Middlesex,1.2,0.3,1.5
Nathan Hale-Ray Middle School,Public,73 Clark Gates Rd,Moodus,6469,Middlesex,4.5,1.6,6.1
Moosup Elementary School,Public,35 Church Street,Moosup,6354,Windham,4.7,0.7,5.3
James Morris School,Public,10 East Street,Morris,6763,Litchfield,1.6,0.0,1.6
Mystic River Magnet School,Public,160 Fishtown Rd,Mystic,6355,New London,1.7,0.0,1.7
Stonington Middle School,Public,204 Mistuxet Avenue,Mystic,6355,New London,3.2,0.3,3.4
Northeast Academy,Public,115 Oslo Street,Mystic,6355,New London,0.5,0.0,0.5
Andrew Ave. Elementary School,Public,140 Andrew Ave,Naugatuck,6770,New Haven,1.2,0.0,1.2
Central Avenue Preschool,Public,28 Central Avenue,Naugatuck,6770,New Haven,0.0,0.0,0.0
City Hill Middle School,Public,441 City Hill Street,Naugatuck,6770,New Haven,1.7,0.0,1.7
Cross Street Intermediate School,Public,120 Cross Street,Naugatuck,6770,New Haven,1.2,0.0,1.2
Hillside Intermediate,Public,51 Hillside Ave,Naugatuck,6770,New Haven,0.6,0.6,1.2
Hop Brook Elementary School,Public,75 Crown Street,Naugatuck,6770,New Haven,0.9,0.0,0.9
Naugatuck High School,Public,543 Rubber Ave,Naugatuck,6770,New Haven,1.2,0.0,1.2
Salem Elementary School,Public,124 Meadow Street,Naugatuck,6770,New Haven,1.2,0.4,1.6
Western Elemantry School,Public,100 Pine St,Naugatuck,6770,New Haven,2.2,0.0,2.2
Maple Hill Elementary School,Public,641 Maple Hill Rd,Naugatuck,6770,New Haven,2.2,0.0,2.2
CREC Academy of Science and Innovation,Public,600 Slater Road,New Britain,6053,Hartford,1.3,0.0,1.3
Diloreto,Public,732 Slater Road,New Britain,6053,Hartford,0.2,0.0,0.2
E.C. Goodwin Technical High School,Public,735 Slater Road,New Britain,6053,Hartford,0.5,0.2,0.6
Gaffney,Public,322 Slater Rd,New Britain,6053,Hartford,0.7,0.0,0.7
Holmes Elementary School,Public,2150 Stanley St,New Britain,6053,Hartford,0.8,0.0,0.8
Jefferson Elementary School,Public,140 Horse Plain Road,New Britain,6053,Hartford,2.6,0.0,2.6
Lincoln Elementary,Public,145 Steele St. 06052,New Britain,6052,Hartford,0.7,0.0,0.7
New Britain High School,Public,110 Mill St,New Britain,6051,Hartford,0.6,1.1,1.8
New Britain Transitional Center,Public,183 Steele Street,New Britain,6052,Hartford,0.0,0.0,0.0
Northend Elementary School,Public,160 Bassett Street,New Britain,6051,Hartford,0.0,1.7,1.7
Pulaski Middle School,Public,757 Farmington Avenue,New Britain,6053,Hartford,0.7,0.0,0.7
Raymond Hill School,Non-public,334 Linwood Street,New Britain,6052,Hartford,0.0,0.0,0.0
Roosevelt Early Learning Center,Public,40 Goodwin Street,New Britain,6051,Hartford,0.6,0.0,0.6
Slade Middle School,Public,183 Steele St.,New Britain,6052,Hartford,0.0,0.0,0.0
Smalley Elementary School,Public,175 West Street,New Britain,6051,Hartford,0.7,0.0,0.7
Smith Elementary School,Public,142 Rutherford St,New Britain,6051,Hartford,0.8,0.2,1.0
Vance,Public,183 Vance St,New Britain,6052,Hartford,0.2,0.0,0.2
Brookside School,Public,505 South Main St.,New Britain,6051,Hartford,0.0,0.0,0.0
Chamberlain Elementary School,Public,221 Farmington Ave.,New Britain,6053,Hartford,0.8,0.0,0.8
East Elementary School,Public,54 Little Brook Road,New Canaan,6840,Fairfield,2.9,0.0,2.9
South,Public,8 Farm Road,New Canaan,6840,Fairfield,2.8,0.2,3.0
West School,Public,469 Ponus Ridge Rd,New Canaan,6840,Fairfield,2.1,0.4,2.5
New Canaan High School,Public,11 Farm Road,New Canaan,6840,Fairfield,2.8,0.2,2.9
Saxe Middle School,Public,468 South Avenue,New Canaan,6840,Fairfield,2.6,0.3,2.9
Consolidated School,Public,24A Gillotti Rd,New Fairfield,6812,Fairfield,1.2,0.6,1.8
Meeting House Hill School,Public,24 Gillotti Rd,New Fairfield,6812,Fairfield,1.3,0.2,1.5
New Fairfield High School,Public,54 Gillotti Road,New Fairfield,6812,Fairfield,0.9,0.0,0.9
New Fairfield Middle School,Public,56 Gillotti Rd,New Fairfield,6812,Fairfield,1.4,0.0,1.4
Ann Antolini School,Public,30 Antolini Road,New Hartford,6057,Litchfield,4.5,0.4,4.9
Bakerville School,Public,51 Cedar Lane,New Hartford,6057,Litchfield,1.9,0.0,1.9
New Hartford Elementary School,Public,40 Wickett St,New Hartford,6057,Litchfield,5.4,0.0,5.4
Montessori School Of Greater Hartford New Hartford Adolescent Program,Non-public,741 Steele Rd,New Hartford,6057,Litchfield,,,
All Saints Catholic Academy,Non-public,423 Ferry St,New Haven,6513,New Haven,0.0,0.0,0.0
Amistad Academy Elementary School,Public,130 Edgewood Ave,New Haven,6511,New Haven,0.4,0.0,0.4
Amistad Academy Middle School,Public,130 Edgewood Ave,New Haven,6511,New Haven,0.3,0.0,0.3
Augusta Lewis Troup School,Public,259 Edgewood Avenue,New Haven,6511,New Haven,0.0,3.0,3.0
Barack H Obama Magnet University,Public,69 Farnham Avenue,New Haven,6515,New Haven,1.8,0.3,2.1
Barnard Environmental Science And Technology School,Public,170 Derby Avenue,New Haven,6511,New Haven,0.7,0.0,0.7
Benjamin Jepson Magnet School,Public,15 Lexington Ave,New Haven,6513,New Haven,0.0,0.0,0.0
Betsy Ross Arts Manet School,Public,150 Kimberly Avenue,New Haven,6519,New Haven,0.6,0.0,0.6
Bishop Woods School,Public,1481 Quinnipiac Avenue,New Haven,6513,New Haven,0.0,0.0,0.0
Booker T. Washington Academy,Public,804 State Street,New Haven,6511,New Haven,0.7,0.0,0.7
Celentano Biotech Health And Medical Magnet School,Public,400 Canner St,New Haven,6511,New Haven,0.0,0.0,0.0
Clinton Avenue School,Public,293 Clinton Avenue,New Haven,6513,New Haven,0.0,0.0,0.0
Cold Spring School,Non-public,263 Chapel Street,New Haven,6513,New Haven,1.3,0.0,1.3
Conte West Hills Magnet School,Public,511 Chapel St,New Haven,6511,New Haven,1.4,0.2,1.5
Coop Arts And Humanities High Sch.,Public,177 College St.,New Haven,6510,New Haven,0.4,0.7,1.1
Davis Academy For Arts And Design Innovation,Public,35 Davis Street,New Haven,6515,New Haven,1.5,0.0,1.5
Edgewood,Public,737 Edgewood Avenue,New Haven,6515,New Haven,1.0,0.2,1.2
Elm City Montessori School,Public,495 Blake Street,New Haven,6515,New Haven,2.5,0.0,2.5
Fair Haven School,Public,164 Grand Avenue,New Haven,6513,New Haven,0.1,0.0,0.1
Family Academy Of Multilingual Exploration,Public,255 Blatchley Ave,New Haven,6513,New Haven,0.6,0.0,0.6
High School In The Community,Public,175 Water Street,New Haven,6511,New Haven,0.0,0.0,0.0
Highville Charter School,Public,1 Science Park,New Haven,6511,New Haven,1.2,0.4,1.6
Hill Regional Career High School,Public,140 Legion Ave.,New Haven,6519,New Haven,0.0,0.2,0.2
Hopkins School,Non-public,986 Forest Road,New Haven,6515,New Haven,0.0,0.1,0.1
James Hillhouse Comprehensive High School,Public,480 Sherman Parkway,New Haven,6511,New Haven,0.0,0.1,0.1
John C Daniels,Public,569 Congress Ave,New Haven,6511,New Haven,0.6,0.0,0.6
John S. Martinez Sea And Sky,Public,100 James Street,New Haven,6513,New Haven,0.0,0.6,0.6
Lincoln Bassett Community School,Public,130 Bassett St.,New Haven,6511,New Haven,0.0,0.4,0.4
Mauro Sheridan,Public,191 Fountain St,New Haven,6511,New Haven,0.4,0.0,0.4
Metropolitan Business Academy,Public,115 Water Street,New Haven,6511,New Haven,0.5,1.0,1.5
New Haven Academy,Public,444 Orange Street,New Haven,6511,New Haven,0.3,0.0,0.3
Riverside,Public,103 Hallock Ave,New Haven,6511,New Haven,0.0,0.0,0.0
Roberto Clemente School,Public,360 Columbus Ave,New Haven,6519,New Haven,0.0,0.0,0.0
Ross Woodward Classical Magnet School,Public,185 Barnes Ave,New Haven,6513,New Haven,0.7,0.2,0.8
Sound,Public,60 S Water St,New Haven,6519,New Haven,0.6,0.6,1.2
St Thomas'S Day School,Non-public,830 Whitney Avenue,New Haven,6511,New Haven,1.7,0.0,1.7
The Foote School,Non-public,50 Loomis Place,New Haven,6511,New Haven,0.9,0.5,1.4
Truman,Public,114 Truman,New Haven,6518,Fairfield,0.0,3.7,3.7
Wexler Grant Community School,Public,55 Foote St.,New Haven,6511,New Haven,0.7,0.4,1.1
Wilbur Cross High Schol,Public,181 Mitchell Dr,New Haven,6511,New Haven,0.2,0.2,0.4
Brennan-Rogers Magnet School,Public,199 Wilton Rd.,New Haven,6515,New Haven,0.0,1.6,1.6
East Rock Community And Cultural Studies Magnet School,Public,133 Nash Street,New Haven,6511,New Haven,0.0,0.0,0.0
Elm City Elementary And Middle,Public,407 James Street,New Haven,6516,New Haven,0.7,0.0,0.7
Hill Central,Public,140 Dewitt Street,New Haven,6109,New Haven,0.2,0.0,0.2
King Robinson School,Public,150 Fournier St,New Haven,6511,New Haven,0.0,0.0,0.0
L.W Beecher Magnet School,Non-public,100 Jewell St.,New Haven,6515,New Haven,0.6,0.0,0.6
Nathan Hale School,Public,480 Townsend Ave,New Haven,6512,New Haven,0.5,0.0,0.5
Bennie Dover Jackson Middle School,Public,36 Waller Street,New London,6320,New London,0.3,0.5,0.9
CB Jennings Elementary School,Public,50 Mercer St,New London,6320,New London,0.0,0.0,0.0
Early Childhood Center At Bp Mission,Public,40 Shaw St,New London,6320,New London,0.0,0.0,0.0
Harbor Elementary,Public,432 Montauk Ave,New London,6320,New London,0.4,0.8,1.2
Interdistrict School For Arts & Communication,Public,190 Governor Winthrop Blvd,New London,6320,New London,1.8,0.0,1.8
Nathan Hale Arts Magnet School,Public,37 Beech Drive,New London,6320,New London,2.1,0.0,2.1
New London Multi-Magnet,Public,20 Chester Ave,New London,6320,New London,0.2,0.0,0.2
Ocean Avenue Learning Academy,Public,660 Ocean Avenue,New London,6320,New London,0.0,0.0,0.0
St Joseph,Non-public,25 Squire St,New London,6320,New London,0.0,0.0,0.0
The Williams School,Non-public,182 Mohegan Ave,New London,6320,New London,3.9,0.6,4.5
Winthrop STEM Elementary School,Public,70 Grove Street,New London,6320,New London,1.2,0.0,1.2
Regional Multicultural Magnet School,Public,1 Bulkeley Place,New London,6320,New London,1.0,1.0,2.1
Canterbury School,Non-public,101 Aspetuck Ave,New Milford,6776,Litchfield,1.5,0.0,1.5
Hill And Plain Elementary School,Public,60 Old Town Park Rd,New Milford,6776,Litchfield,1.0,0.0,1.0
New Milford High School,Public,388 Danbury Rd,New Milford,6776,Litchfield,1.2,1.0,2.2
Northville Elementary,Public,22 Hipp Road,New Milford,6776,Litchfield,1.5,0.2,1.8
Sarah Noble Intermediate School,Public,25 Sunny Valley Rd,New Milford,6776,Litchfield,2.9,0.1,3.0
Schaghticoke Middle School,Public,23 Hipp Road,New Milford,6776,Litchfield,1.0,0.6,1.6
Washington Montessori School,Non-public,240 Litchfield Turnpike,New Preston,6069,Litchfield,7.2,2.8,10.0
Anna Reynolds Elementary,Public,85 Reservoir Road,Newington,6111,Hartford,2.6,0.0,2.6
Elizabeth Green Elementary School,Public,30 Thomas Street,Newington,6111,Hartford,0.7,0.4,1.1
Emmanuel Christian Academy,Non-public,569 Maple Hill Ave.,Newington,6111,Hartford,35.1,0.0,35.1
John Paterson Elementary School,Public,120 Church Street,Newington,6111,Hartford,1.8,0.2,2.0
Newington High School,Public,605 Willard Ave,Newington,6111,Hartford,0.6,0.0,0.6
Ruth Chaffee Elementary School,Public,160 Superior Avenue,Newington,6067,Hartford,1.2,0.0,1.2
John Wallace Middle School,Public,71 Halleran Drive,Newington,6111,Hartford,0.7,0.0,0.7
Fraser Woods Montessori School,Non-public,173 South Main Street,Newtown,6471,Fairfield,3.1,2.3,5.4
Hawley School,Public,29 Church Hill Rd,Newtown,6470,Fairfield,4.1,0.7,4.8
Head O' Meadow,Public,94 Boggs Hill Rd.,Newtown,6470,Fairfield,0.8,0.3,1.0
Housatonic Valley Waldorf School,Non-public,40 Dodgingtown Road,Newtown,6470,Fairfield,33.9,1.8,35.7
Micclde Gate Elementary,Public,7 Cold Spring Road,Newtown,6470,Fairfield,3.2,0.0,3.2
Newtown Middle School,Public,11 Queen St,Newtown,6472,Fairfield,3.5,0.5,3.9
Reed Intermediate School,Public,3 Trades Lane,Newtown,6470,Fairfield,4.0,0.2,4.1
Saint Rose School,Non-public,40 Church Hill Road,Newtown,6470,Fairfield,4.6,0.4,5.0
East Lyme Middle School,Public,31 Society Road,Niantic,6357,New London,1.3,0.7,2.0
Lighthouse Vocational Education Center,Non-public,15 Liberty Way,Niantic,6357,New London,,,
Lillie B Haynes Elementary,Public,29 Society Road,Niantic,6357,New London,1.0,0.2,1.2
Niantic Center School,Public,7 W. Main St,Niantic,6357,New London,0.9,0.0,0.9
Botelle School,Public,128 Greenwoods East,Norfolk,6058,Litchfield,0.0,0.0,0.0
Jerome Harrison Elementary School,Public,335 Foxon Road,North Branford,6471,New Haven,2.8,0.0,2.8
North Branford High School,Public,49 Caputo Rd,North Branford,6471,New Haven,3.1,0.0,3.1
North Branford Middle School,Public,654 Foxon Road,North Branford,6471,New Haven,4.9,0.0,4.9
Thompson Public Schools,Public,785 Riverside Drive,North Grosvenordale,6255,Windham,1.8,0.0,1.8
ACES Mill Academy,Non-public,295 Mill Road,North Haven,6473,New Haven,0.0,0.0,0.0
Aces Village School,Public,31 Temple Street,North Haven,6473,New Haven,0.7,0.7,1.4
Clintonville Elementary School,Public,456 Clintonville Road,North Haven,6473,New Haven,0.8,0.0,0.8
Montowese Elementary,Public,145 Fitch Street,North Haven,6473,New Haven,0.0,0.0,0.0
North Haven High School,Public,221 Elm Street,North Haven,6473,New Haven,0.6,0.3,0.9
North Haven Middle School,Public,55 Bailey Rd,North Haven,6492,New Haven,1.0,0.3,1.2
Ridge Road Elementary School,Public,1341 Ridge Road,North Haven,6514,New Haven,1.0,0.2,1.2
Green Acres Elementary School,Public,146 Upper State Street,North Haven,6473,New Haven,0.5,0.2,0.7
North Stonington Christian Academy,Non-public,12 Stillman Road,North Stonington,6359,New London,,,
North Stonington Elementary School,Public,298 Norwich Westerly Road,North Stonington,6359,New London,3.2,0.0,3.2
Wheeler High School,Public,297 Norwich - Westerly Road,North Stonington,6359,New London,4.1,0.0,4.1
Wheeler Middle School,Public,297 Norwich Westerly Road,North Stonington,6359,New London,2.4,0.0,2.4
C.H. Barrows Stem Academy,Public,141 Tuckie Road,North Windham,6256,Windham,2.0,0.0,2.0
North Windham School,Public,112 Jordan Lane,North Windham,6256,Windham,0.2,0.0,0.2
Totoket Valley Elementary School,Public,1388 Middletown Ave.,Northford,6471,New Haven,4.0,0.0,4.0
Anchor Academy Dba Regina Pacis Academy,Non-public,8 Leonard Street,Norwalk,6850,Fairfield,8.0,0.0,8.0
Brien Mcmahon High School,Public,300 Highland Avenue,Norwalk,6854,Fairfield,1.0,0.3,1.3
Brookside Elementary,Public,382 Highland Avenue,Norwalk,6824,Fairfield,2.1,0.0,2.1
Concord Magnet School,Public,21 Hunter'S Lane,Norwalk,6850,Fairfield,2.8,0.0,2.8
Cranbury Elementary,Public,10 Knowalot Lane,Norwalk,6851,Fairfield,1.7,0.2,1.9
Fox Run Elementary School,Public,228 Fillow Street,Norwalk,6850,Fairfield,0.8,0.0,0.8
High Road School Of Fairfield County,Non-public,17 North Avenue,Norwalk,6851,Fairfield,0.0,0.0,0.0
Jefferson Elementary School,Public,75 Van Buren,Norwalk,6850,Fairfield,0.5,0.0,0.5
Kendall College And Career Academy,Public,57 Fillow Street,Norwalk,6850,Fairfield,0.7,2.7,3.4
Marvin Elementary School,Public,15 Calf Pasture Road,Norwalk,6855,Fairfield,0.7,0.2,1.0
Naramake Elementary School,Public,16 King Street,Norwalk,6851,Fairfield,1.7,0.0,1.7
Nathan Hale Middle School,Public,176 Strawberry Hill Avenue,Norwalk,6851,Fairfield,1.4,0.0,1.4
Norwalk Early Childhood Center,Public,11 Allen Road,Norwalk,6851,Fairfield,0.0,0.0,0.0
Norwalk High School,Public,23 Calvin Murphy Drive,Norwalk,6851,Fairfield,0.9,0.0,0.9
Ponus Ridge Steam Academy,Public,21 Hunters Lane,Norwalk,6850,Fairfield,1.1,0.0,1.1
Roton Middle School,Public,201 Highland Avenue,Norwalk,6853,Fairfield,1.8,0.4,2.2
Rowayton Elementary School,Public,1 Roton Ave.,Norwalk,6853,Fairfield,1.9,0.0,1.9
Silvermine School,Public,157 Perry Ave,Norwalk,6850,Fairfield,1.5,0.0,1.5
South Norwalk School,Public,46 Chestnut St,Norwalk,6853,Fairfield,0.0,0.0,0.0
Tracey Magnet School,Public,20 Camp Street,Norwalk,6851,Fairfield,1.7,0.0,1.7
West Rocks Middle School,Public,81 West Rocks Road,Norwalk,6851,Fairfield,1.0,0.0,1.0
Winston Preparatory School,Non-public,57 West Rocks Road,Norwalk,6851,Fairfield,4.6,0.0,4.6
Wolfpit Integrated Arts School,Public,1 Starlight Drive,Norwalk,6851,Fairfield,1.9,0.3,2.2
All Saints Catholic School,Non-public,139 West Rocks Road,Norwalk,6851,Fairfield,0.8,0.2,1.0
Bishop Early Learning Center,Public,526 E Main St,Norwich,6360,New London,0.0,0.6,0.6
Integrated Day Charter School,Public,68 Thermos Ave,Norwich,6360,New London,7.0,0.6,7.5
Joshua Center Thames Valley CDT,Non-public,11A Stott Avenue,Norwich,6360,New London,,,
Montessori Discovery School,Non-public,218 Dudley St,Norwich,6360,New London,0.0,0.0,0.0
Moriarty Magnet Elementary School,Public,20 Lawler Ln,Norwich,6360,New London,0.0,0.0,0.0
Norwich Free Academy,Public,305 Broadway,Norwich,6357,New London,1.8,0.0,1.9
Norwich Technical High School,Public,7 Mahan Drive,Norwich,6360,New London,1.5,0.3,1.8
Samuel Huntington Elementary,Public,80 West Town Street,Norwich,6360,New London,0.9,0.0,0.9
Teachers Global Magnet Middle School,Public,15 Teachers Dr.,Norwich,6360,New London,2.2,0.0,2.2
Thomas W Mahan Elementary School,Public,94 Salem Turnpike,Norwich,6360,New London,1.1,0.4,1.5
Three Rivers Middle College Magnet High School,Public,574 Norwich New London Turnpike,Norwich,6360,New London,0.0,0.0,0.0
Uncas Elementary,Public,280 Elizabeth Street,Norwich,6360,New London,1.2,1.2,2.4
Veterans Memorial Elementary School,Public,80 Crouch Avenue,Norwich,6360,New London,0.4,0.4,0.7
Widlwood Christian School,Non-public,35 Wawecus Hill Rd,Norwich,6360,New London,12.7,0.0,12.7
Kelly Middle School,Public,25 Mahan Drive,Norwich,6360,New London,0.7,0.5,1.2
Dr. Charles E. Murphy Elementary,Public,500 Chesterterfield Rd.,Oakdale,6370,New London,2.8,1.1,3.9
Leonard J Tyl Middle School,Public,166 Chesterfield Road,Oakdale,6370,New London,0.4,0.4,0.8
Montville High School,Public,800 Old Colchester Rd,Oakdale,6370,New London,0.6,0.2,0.8
Oakdale Elementary,Public,30 Indiana Circle,Oakdale,6370,New London,0.8,0.3,1.1
Saint Thomas More School,Non-public,45 Cottage Road,Oakdale,6370,New London,0.0,0.0,0.0
John Trumbull Primary,Public,779 Buckingham St.,Oakville,6779,Litchfield,1.4,0.0,1.4
Polk Elementary,Public,435 Buckingham Street,Oakville,6779,Litchfield,0.9,0.0,0.9
St. Mary Magdalen School,Non-public,140 Buckingham Street,Oakville,6779,Litchfield,1.5,0.0,1.5
Swift Middle School,Public,250 Colonial St.,Oakville,6779,Litchfield,2.4,0.2,2.6
Old Greenwich School,Public,285 Sound Beach Avenue,Old Greenwich,6877,Fairfield,0.5,0.0,0.5
Center School,Public,49 Lyme Street,Old Lyme,6371,New London,0.0,0.0,0.0
Lyme Old Lyme High School,Public,69-2 Lyme Street,Old Lyme,6371,New London,0.7,0.7,1.5
Mile Creek School,Public,205 Mile Creek Road,Old Lyme,6371,New London,0.6,0.0,0.6
Lyme-Old Lyme Middle School,Public,53 Lyme St,Old Lyme,6371,New London,3.0,0.7,3.7
Joshua Center Shoreline CDT,Non-public,5 Research Pkwy,Old Saybrook,6457,New London,,,
K.E. Goodwin School,Public,80 Old Boston Post Rd,Old Saybrook,6475,Middlesex,1.7,0.2,2.0
Old Saybrook Middle School,Public,60 Sheffield Street,Old Saybrook,6475,Middlesex,1.6,0.0,1.6
Saint John School,Non-public,42 Maynard Road,Old Saybrook,6475,Middlesex,3.4,0.0,3.4
The Children'S Tree Montessori School,Non-public,96 Essex Road,Old Saybrook,6475,Middlesex,17.7,0.0,17.7
Old Saybrook High School,Public,1111 Boston Post Rd,Old Saybrook,6475,Middlesex,0.8,0.8,1.7
Amity Middle School - Orange,Public,100 Ohman Ave,Orange,6477,New Haven,1.4,0.3,1.7
Hope Academy,Non-public,89 Marsh Hill Rd,Orange,6477,New Haven,2.0,0.0,2.0
Mary L. Tracy,Public,650 Schoolhouse Lane,Orange,6477,New Haven,0.0,0.0,0.0
Milestones Behavioral Services,Non-public,339 Boston Post Rd,Orange,6477,New Haven,2.9,0.0,2.9
Orange Community Nursery School,Non-public,525 Orange Center Road,Orange,6477,New Haven,0.0,0.0,0.0
Race Brook School,Public,107 Grannis Rd,Orange,6477,New Haven,1.8,0.3,2.1
Southern Connecticut Hebrew Academy,Non-public,261 Derby Avenue,Orange,6477,New Haven,11.3,0.0,11.3
The Foundation School,Non-public,719 Derby Milford Road,Orange,6477,New Haven,,,
Great Oak Elementary School,Public,50 Great Oak Rd.,Oxford,6478,New Haven,3.4,0.6,4.0
Oxford High School,Public,61 Quaker Farms Road,Oxford,6418,New Haven,4.6,0.2,4.8
Oxford Middle School,Public,40 Great Oak Rd.,Oxford,6478,New Haven,4.7,0.0,4.7
Quaker Farms School,Public,30 Great Oak Rd,Oxford,6478,New Haven,3.7,0.0,3.7
West Vine Street School,Public,17 West Vine Street,Pawcatuck,6379,New London,2.3,0.3,2.5
St. Michael School,Non-public,131 West Broad Street,Pawcatuck,6379,New London,4.9,1.1,5.9
Early Childhood Center Plainfield Public Schools,Public,651 Norwich Road,Plainfield,6374,Windham,0.0,0.0,0.0
Plainfield Central Middle School,Public,75 Canterbury Road,Plainfield,6374,Windham,6.2,0.2,6.4
Frank T. Wheeler,Public,15 Cleveland Memorial Drive,Plainville,6062,Hartford,4.2,0.0,4.2
Linden St. School,Public,69 Linden St.,Plainville,6062,Hartford,2.1,0.3,2.4
Northwest Village School,Non-public,91 Northwest Village Drive,Plainville,6062,Hartford,1.0,0.0,1.0
Toffolon Elementary School,Public,145 Northwest Dr,Plainville,6062,Hartford,2.4,0.0,2.4
Middle School Of Plainville,Public,150 Northwest Dr.,Plainville,6062,Hartford,3.3,0.2,3.5
Plainville High School,Public,47 Robert Holcomb Way,Plainville,6062,Hartford,2.1,0.1,2.2
JFK Middle School,Public,1071 South Main Street,Plantsville,6479,Hartford,0.6,0.1,0.7
Oshana Elementary School,Public,70 Church Street,Plantsville,6479,Hartford,1.9,0.8,2.7
South End Elementary School,Public,10 Maxwell Noble Dr,Plantsville,6479,Hartford,1.2,0.8,2.0
Strong Elementary School,Public,820 Marion Ave,Plantsville,6479,Hartford,2.1,0.0,2.1
Plymouth Center,Public,107 North St.,Plymouth,6782,Litchfield,0.3,0.3,0.6
Pomfret School,Non-public,398 Pomfret St,Pomfret,6258,Windham,0.3,0.6,0.8
Pomfret Community School,Public,"20 Pomfret St,",Pomfret Center,6259,Windham,5.2,0.3,5.4
Brownstone Intermediate School,Public,314 Main Street,Portland,6480,Middlesex,5.6,0.0,5.6
Gildersleeve Elementary School,Public,565 Main Street,Portland,6480,Middlesex,4.4,0.0,4.4
Portland High School,Public,95 High Street,Portland,6480,Middlesex,1.3,0.0,1.3
Portland Middle School,Public,93 High St,Portland,6480,Middlesex,2.0,1.5,3.5
Valley View,Public,81 High St,Portland,6480,Middlesex,1.8,0.0,1.8
Preston Plains Middle School,Public,1 Route 184,Preston,6365,New London,0.0,0.0,0.0
Preston Veteran Memorial School,Public,285 Shetucket Turnpike,Preston,6365,New London,0.3,0.3,0.6
Long River Middle School,Public,38 Columbia Ave,Prospect,6712,New Haven,4.5,5.9,10.4
Prospect Elementary School,Public,75 New Haven Road,Prospect,6712,New Haven,2.8,0.0,2.8
Putnam Elementary School,Public,33 Wicker Street,Putnam,6260,Windham,4.4,0.3,4.7
Putnam Middle School,Public,35 Wicker Street,Putnam,6260,Windham,0.9,0.6,1.5
Quaker Hill Elementary,Public,285 Bloomingdale Road,Quaker Hill,6375,New London,0.0,0.0,0.0
Joel Barlow High School,Public,100 Black Rock Turnpike,Redding,6896,Fairfield,5.9,0.1,6.0
John Read Middle School,Public,486 Redding Rd.,Redding,6896,Fairfield,3.7,0.3,4.0
Redding Elementary School,Public,33 Lonetown Rd.,Redding,6896,Fairfield,3.5,0.2,3.7
Barlow Mountain Elementary School,Public,115 Barlow Mountain Road,Ridgefield,6877,Fairfield,0.3,0.5,0.8
Branchville Elementary School,Public,58 High Ridge Rd,Ridgefield,6877,Fairfield,2.1,0.6,2.7
East Ridge Middle School,Public,10 East Ridge Road,Ridgefield,6877,Fairfield,2.8,0.0,2.8
Farmingville Elementary,Public,324 Farmingville Rd,Ridgefield,6877,Fairfield,4.1,0.0,4.1
Ridgebury Elementary School,Public,112 Bennetts Farm Rd,Ridgefield,6877,Fairfield,2.2,0.0,2.2
Ridgefield Academy,Non-public,223 West Mountain Road,Ridgefield,6877,Fairfield,1.9,0.0,1.9
Ridgefield High School,Public,700 North Salem Road,Ridgefield,6877,Fairfield,1.6,0.6,2.2
Saint Mary,Non-public,183 High Ridge Ave,Ridgefield,6877,Fairfield,2.2,0.0,2.2
Scotland Elementary School,Public,111 Barlow Mountain Road,Ridgefield,6877,Fairfield,0.3,0.3,0.6
Scotts Ridge Middle School,Public,750 North Salem Rd,Ridgefield,6877,Fairfield,1.5,0.0,1.5
Veterans Park Elementary School,Public,8 Governor Street,Ridgefield,6877,Fairfield,1.2,1.2,2.4
International School At Dundee,Public,55 Florence Road,Riverside,6878,Fairfield,1.5,0.6,2.1
North Mianus Elementary School,Public,309 Palmer Hill Rd,Riverside,6878,Fairfield,1.6,0.2,1.8
Riverside School,Public,90 Hendrie Avenue,Riverside,6878,Fairfield,0.7,0.0,0.7
Aerospace And Engineering Elementary School,Public,7 Gardner Way,Rocky Hill,6067,Hartford,1.9,0.0,1.9
Albert D. Griswold Middle School,Public,144 Bailey Rd,Rocky Hill,6067,Hartford,0.8,0.0,0.8
Moser Intermediate School,Public,10 School Street,Rocky Hill,6067,Hartford,2.4,0.3,2.7
Myrtle H. Stevens School,Public,322 Orchard Street,Rocky Hill,6109,Hartford,1.3,0.5,1.8
Rocky Hill High School,Public,50 Chapin Ave,Rocky Hill,6067,Hartford,1.5,0.0,1.5
West Hill Elementary,Public,95 Cronin Drive,Rocky Hill,6067,Hartford,0.7,0.2,1.0
Booth Free School,Public,14 South Street,Roxbury,6783,Litchfield,5.4,1.4,6.8
Salem School,Public,200 Hartford Road,Salem,6420,New London,2.0,0.5,2.5
Salisbury Central,Public,45 Lincoln City Road,Salisbury,6069,Litchfield,2.0,0.3,2.3
Salisbury School,Non-public,251 Canaan Rd,Salisbury,6068,Litchfield,0.3,0.3,0.7
Newtown High School,Public,12 Berkshire Rd,Sandy Hook,6482,Fairfield,2.0,0.2,2.1
Sandy Hook Elementary School,Public,12 Dickenson Dr,Sandy Hook,6482,Fairfield,1.4,0.3,1.6
Scotland Elementary School,Public,68 Brook Rd,Scotland,6264,Windham,2.1,0.0,2.1
Bungay Elementary School,Public,35 Bungay Road,Seymour,6483,New Haven,1.6,0.3,1.9
Chatfield-Lopresti,Public,51 Skakorat Street,Seymour,6483,New Haven,0.0,0.5,0.5
Seymour High School,Public,2 Botsford Road,Seymour,6483,New Haven,1.5,0.2,1.7
Sharon Center School,Public,80 Hilltop Road,Sharon,6069,Litchfield,2.1,1.0,3.1
Booth Hill Elementary School,Public,544 Booth Hill Road,Shelton,6484,Fairfield,2.2,0.6,2.8
Elizabeth Shelton Elementary,Public,138 Willoughby Road,Shelton,6484,Fairfield,2.6,0.0,2.6
Long Hill Elementary,Public,565 Long Hill Avenue,Shelton,6484,Fairfield,2.1,2.1,4.3
Mohegan School,Public,47 Mohegan Road,Shelton,6484,Fairfield,5.7,0.2,5.9
Perry Hill School,Public,60 Perry Hill Road,Shelton,6484,Fairfield,1.4,0.1,1.6
Shelton Intermediate School,Public,675 Constitution Blvd. North,Shelton,6484,Fairfield,2.1,0.0,2.1
Sunnyside School,Public,418 River Rd,Shelton,6484,Fairfield,1.7,0.0,1.7
Shelton High School,Public,120 Meadow Street,Shelton,6484,Fairfield,0.5,0.8,1.3
The Sherman School,Public,2 Route 37 East,Sherman,6784,Fairfield,4.1,0.0,4.1
Central School,Public,29 Massaco St,Simsbury,6070,Hartford,0.8,0.5,1.2
Henry James Memorial School,Public,155 Firetown Road,Simsbury,6070,Hartford,1.3,0.2,1.4
Saint Mary'S School,Non-public,946 Hopmeadow Street,Simsbury,6070,Hartford,2.3,0.0,2.3
Simsbury High School,Public,34 Farms Village Road,Simsbury,6070,Hartford,2.2,0.2,2.4
Squadron Line School,Public,44 Squadron Line Road,Simsbury,6090,Hartford,0.8,0.1,0.9
The Cobb School,Non-public,112 Sand Hill Road,Simsbury,6070,Hartford,2.2,0.0,2.2
Westminster School,Non-public,995 Hopmeadow St,Simsbury,6070,Hartford,1.2,1.2,2.4
Mabelle B Avery Middle School,Public,5 Vision Boulevard,Somers,6071,Hartford,2.0,0.7,2.6
Somers Elementary School,Public,4 Vision Blvd,Somers,6071,Tolland,1.1,0.0,1.1
Somers High School,Public,5 Vision Blvd,Somers,6071,Tolland,1.6,1.0,2.6
Hopewell Elementary,Public,1068 Chestnut Hill Rd,South Glastonbury,6067,Hartford,0.2,0.0,0.2
Nayaug Elementary,Public,222 Old Maids Lane,South Glastonbury,6073,Hartford,1.9,0.0,1.9
South Kent School,Non-public,40 Bulls Bridge Rd,South Kent,6785,Litchfield,2.7,0.7,3.4
Hanover Elementary School,Public,208 Main Street,South Meriden,6451,New Haven,1.2,0.0,1.2
CREC Academy of International Studies,Public,625 Chapel Road,South Windsor,6074,Hartford,1.6,0.4,2.0
Eli Terry Elementary School,Public,569 Griffin Rd,South Windsor,6074,Hartford,0.0,0.0,0.0
Orchard Hill Elementary School,Public,380 Foster St,South Windsor,6074,Hartford,0.0,0.0,0.0
Philip R. Smith,Public,949 Avery Street,South Windsor,6074,Hartford,0.6,0.8,1.5
Pleasant Valley,Public,591 Ellington Rd,South Windsor,6074,Hartford,0.7,0.0,0.7
South Windsor High School,Public,161 Nevers Road,South Windsor,6074,Hartford,1.6,0.3,1.9
Timothy Edwards Middle School,Public,100 Arnold Way,South Windsor,6074,Hartford,2.4,0.6,3.1
Gainfield Elementary School,Public,307 Old Field Road,Southbury,6488,New Haven,0.9,0.0,0.9
Pomperaug Elementary School,Public,607 Main Street South,Southbury,6488,New Haven,1.9,0.0,1.9
Pomperaug High School,Public,234 Judd Rd,Southbury,6488,New Haven,1.6,0.4,2.0
Rochambeau Middle School,Public,100 Peter Road,Southbury,6488,New Haven,2.1,0.3,2.3
Depaolo Middle School,Public,385 Pleasant Street,Southington,6489,Hartford,2.8,0.1,3.0
Derynoski Elementary School,Public,240 Main Street,Southington,6489,Hartford,2.7,0.4,3.1
Flanders Elementary School,Public,100 Victoria Drive,Southington,6489,Hartford,3.2,0.4,3.6
Hatton Elementary School,Public,50 Spring Lake Road,Southington,6489,Hartford,2.7,0.7,3.4
Karen Smith Academy,Public,242 Main Street,Southington,6489,Hartford,0.0,0.0,0.0
Southington High School,Public,720 Pleasant Street,Southington,6489,Hartford,1.6,0.2,1.8
Thalberg Elementary School,Public,145 Dunham Street,Southington,6489,Hartford,1.2,0.0,1.2
Southington Catholic,Non-public,133 Bristol Street,Southington,6489,Hartford,1.8,0.9,2.6
Urbin T Kelley Elementary School,Public,501 Ridgewood Road,Southington,6489,Hartford,2.4,0.3,2.7
Mill Hill School,Public,635 Mill Hill Terrace,Southport,6890,Fairfield,0.0,0.0,0.0
The Southport School,Non-public,214 Main Street,Southport,6890,Fairfield,3.4,0.8,4.2
Stafford Elementary School,Public,11 Levinthal Run,Stafford Springs,6076,Tolland,10.0,0.4,10.4
Stafford High School,Public,145 Orcuttville Rd,Stafford Springs,6076,Tolland,5.8,1.3,7.0
Stafford Middle School,Public,21 Levinthal Run,Stafford Springs,6076,Tolland,7.8,0.0,7.8
West Stafford School,Public,153 W. Stafford Rd.,Stafford Springs,6076,Tolland,0.0,0.5,0.5
Academy Of Information Technology And Engineering,Public,411 High Ridge Road,Stamford,6905,Fairfield,1.2,0.3,1.6
Anchor School,Public,229 North St.,Stamford,6905,Fairfield,0.0,0.0,0.0
Apples Early Childhood Education Center,Public,831 High Ridge Road,Stamford,6905,Fairfield,2.4,0.9,3.3
Cardinal Kung Academy,Non-public,948 Newfield Avenue,Stamford,6905,Fairfield,3.8,0.0,3.8
Cloonan MS,Public,11 West North Street,Stamford,6902,Fairfield,1.7,0.3,2.1
Davenport Ridge Elementary,Public,1300 Newfield Ave.,Stamford,6905,Fairfield,2.4,0.2,2.6
Dolan Middle School,Public,51 Toms Road,Stamford,6906,Fairfield,1.3,0.0,1.3
First United Methodist--Kindergarten,Non-public,42 Cross Road,Stamford,6905,Fairfield,,,
Hart Magnet Elementary,Public,61 Adams Ave,Stamford,6902,Fairfield,2.0,0.5,2.6
JM Wright Technical high School,Public,120 Bridge Street,Stamford,6905,Fairfield,0.9,0.2,1.2
Julia A Stark,Public,398 Glenbrook Road,Stamford,6906,Fairfield,1.5,0.7,2.2
King,Non-public,1450 Newfield Avenue,Stamford,6905,Fairfield,1.7,0.1,1.9
KT Murphy,Public,19 Horton Street,Stamford,6902,Fairfield,1.8,1.0,2.8
Long Ridge School,Non-public,478 Erskine Road,Stamford,6906,Fairfield,5.2,0.0,5.2
Mater Salvatoris College Prepartory School,Non-public,929 Newfield Avenue,Stamford,6905,Fairfield,4.9,0.0,4.9
Northeast Elementary School,Public,82 Scofieldtown Rd,Stamford,6903,Fairfield,2.4,0.2,2.6
Our Lady Of Grace-Kindergarten,Non-public,635 Glenbrook Road,Stamford,6906,Fairfield,,,
Rippowam Middle School,Public,381 High Ridge Rd,Stamford,6905,Fairfield,1.5,0.5,2.1
Roxbury Elementary School,Public,751 West Hill Rd,Stamford,6902,Fairfield,1.1,0.5,1.6
Scofield Magnet Middle School,Public,641 Scofieldtown Road,Stamford,6903,Fairfield,1.0,0.8,1.9
Springdale Elementary,Public,11 Hope St,Stamford,6907,Fairfield,2.1,3.1,5.2
St. Aloysius School,Non-public,403 Schofieldtown Road,Stamford,6903,Fairfield,3.6,1.2,4.8
Stamford Charter School For Excellence,Public,1 Schuyler Ave,Stamford,6902,Fairfield,0.0,0.2,0.2
Stamford High School,Public,55 Strawberry Hill Ave,Stamford,6902,Fairfield,0.8,0.0,0.8
Strawberry Hill School,Public,200 Strawberry Hill School,Stamford,6902,Fairfield,3.2,0.0,3.2
The Catholic Academy Of Stamford,Non-public,1186 Newfield Ave,Stamford,6905,Fairfield,3.9,2.6,6.5
The Pinnacle School,Non-public,201 High Ridge Road,Stamford,6905,Fairfield,1.6,0.0,1.6
The Spire School,Non-public,201 High Ridge Road,Stamford,6905,Fairfield,1.9,0.0,1.9
Toquam Magnet Elementary School,Public,123 Ridgewood Ave,Stamford,6907,Fairfield,1.5,0.4,1.8
TOR Middle School,Public,117 Vine Road,Stamford,6905,Fairfield,1.9,0.3,2.2
Waterside School,Non-public,770 Pacific Street,Stamford,6902,Fairfield,4.1,0.0,4.1
Westhill High School,Public,125 Roxbury Road,Stamford,6902,Fairfield,0.8,0.0,0.8
Westover Magnet Elementary School,Public,412 Stillwater Ave,Stamford,6902,Fairfield,2.2,0.6,2.8
Newfield Elementary School,Public,345 Pepper Ridge Rd,Stamford,6905,Fairfield,0.8,0.0,0.8
Rogers International School,Public,202 Blachey Rd,Stamford,6902,Fairfield,3.6,0.3,3.9
Stillmeadow Elementary School,Public,800 Stillwater Avenue,Stamford,6902,Fairfield,2.2,0.3,2.5
The Children'S School,Non-public,118 Scofield Town Road,Stamford,6905,Fairfield,1.6,0.8,2.4
The Mead School,Non-public,1095 Riverbank Road,Stamford,6903,Fairfield,3.3,0.0,3.3
Nichols Elementary,Public,393 Nichols Ave,Startford,6614,Fairfield,0.0,0.0,0.0
Sterling Community School,Public,251 Sterling Rd,Sterling,6377,Windham,1.6,0.0,1.6
Deans Mill School,Public,35 Deans Mill Road,Stonington,6378,New London,0.4,0.2,0.7
Pine Point School,Non-public,89 Barnes Road,Stonington,6378,New London,0.9,0.0,0.9
Mansfield Middle School,Public,205 Spring Hill Rd.,Storrs,6268,Tolland,0.4,0.0,0.4
Regional District 19,Public,1235 Storrs Rd.,Storrs,6268,Tolland,1.8,0.1,1.9
BCHA,Non-public,2186 High Ridge Rd,Stramford,6903,Fairfield,1.6,0.6,2.2
Bunnell High School,Public,1 Bulldog Blvd.,Stratford,6614,Fairfield,1.1,0.1,1.2
Chapel Street Elementary School,Public,380 Chapel Street,Stratford,6614,Fairfield,1.3,0.0,1.3
Eli Whitney Elementary School,Public,1130 Huntington Ave,Stratford,6614,Fairfield,0.4,0.0,0.4
Flood Middle School,Public,490 Chapel St.,Stratford,6614,Fairfield,0.4,0.0,0.4
Franklin,Public,1895 Barnum Ave,Stratford,6614,Fairfield,0.0,0.0,0.0
Lordship,Public,254 Crown St,Stratford,6614,Fairfield,1.1,0.6,1.7
Second Hill Lane,Public,65 Second Hill Lane,Stratford,6614,Fairfield,1.1,0.0,1.1
St. Mark School,Non-public,500 Wigwam Lane,Stratford,6614,Fairfield,4.7,0.0,4.7
Stratford Academy Johnson House,Public,719 Birdseye Street,Stratford,6615,Fairfield,0.7,0.0,0.7
Stratford High School,Public,245 King Street,Stratford,6614,Fairfield,0.7,0.0,0.7
Victoria Soto School,Public,699 Birdseye Street,Stratford,6615,Fairfield,0.0,0.0,0.0
Wilcoxson Elementary School,Public,600 Wilcoxson Ave,Stratford,6614,Fairfield,1.6,0.0,1.6
Wooster Middle School,Public,150 Lincoln Street,Stratford,6614,Fairfield,1.7,0.0,1.7
Suffield Academy,Non-public,185 N Main Street,Suffield,6078,Hartford,0.5,0.0,0.5
Suffield High School,Public,1060 Sheldon Street,Suffield,6093,Hartford,1.9,0.0,1.9
Suffield Middle School,Public,350 Mountain Road,Suffield,6078,Hartford,1.1,0.2,1.3
Mc Alister School,Public,260 Mountain Road,Suffield,6078,Hartford,0.5,0.0,0.5
Sacred Heart,Non-public,15 Hunters Avenue,Taftville,6380,New London,0.0,0.0,0.0
Wequonnoc Elementary School,Public,155 Providence St,Taftville,6380,New London,0.0,0.0,0.0
Tariffville School,Public,42 Winthrop Street,Tariffville,6081,Hartford,1.5,0.0,1.5
Eli Terry Junior Middle School,Public,21 N. Main St.,Terryville,6786,Hartford,4.3,0.0,4.3
Harry S Fisher Elementary,Public,79 N Main St,Terryville,6786,Litchfield,1.6,0.0,1.6
Terryville High School,Public,33 N. Harwinton Avenue,Terryville,6786,Litchfield,1.1,0.3,1.4
Black Rock School,Public,57 Branch Rd,Thomaston,6787,Litchfield,0.0,0.0,0.0
Thomaston High School,Public,185 Branch Road,Thomaston,6787,Litchfield,0.6,0.0,0.6
River Run Academy,Non-public,75 Church Street,Thompson,6277,Windham,0.0,0.0,0.0
Birch Grove Primary School,Public,247 Rhodes Rd,Tolland,6084,Tolland,3.3,0.7,4.0
Tolland High School,Public,1 Eagle Hill,Tolland,6084,Tolland,1.9,0.3,2.2
Tolland Intermediate School,Public,96 Old Post Rd,Tolland,6084,Tolland,3.6,0.2,3.9
Tolland Middle School,Public,1 Falcon Way,Tolland,6084,Tolland,4.0,0.0,4.0
Forbes School,Public,500 Migeon Ave,Torrington,6790,Litchfield,0.3,0.0,0.3
Oliver Wolcott Tech,Public,75 Oliver St,Torrington,6790,Litchfield,1.7,0.0,1.7
Saint John Paul The Great Academy,Non-public,360 Prospect Street,Torrington,6790,Litchfield,6.1,0.0,6.1
Southwest,Public,350 Litchfield Street,Torrington,6790,Litchfield,1.0,0.0,1.0
St. John Paul The Great Academy,Non-public,360 Prospect St. Torrington,Torrington,6790,Litchfield,5.6,0.0,5.6
Torringford Elementary School,Public,800 Charles Street,Torrington,6790,Litchfield,1.6,0.0,1.6
Torrington High School,Public,50 Major Besse Drive,Torrington,6790,Litchfield,0.3,0.1,0.4
Torrington Middle School,Public,200 Middle School Dr.,Torrington,6790,Litchfield,0.5,0.0,0.5
Vogel Wetmore,Public,68 Church Street,Torrington,6790,Litchfield,0.0,0.0,0.0
Booth Hill School,Public,545 Booth Hill Road,Trumbull,6611,Fairfield,2.5,0.4,2.9
Christian Heritage School,Non-public,575 White Plains Rd,Trumbull,6611,Fairfield,8.3,0.7,9.0
Cooperative Educational Services,Public,25 Oakview Dr,Trumbull,6611,Fairfield,1.4,0.0,1.4
Daniels Farm,Public,710 Daniels Farm Road,Trumbull,6611,Fairfield,0.0,0.0,0.0
Frenchtown Elementary School,Public,30 Frenchtown Road,Trumbull,6611,Fairfield,3.6,0.2,3.8
Hillcrest Middle School,Public,530 Daniels Farm Rd,Trumbull,6611,Fairfield,2.0,0.3,2.2
Jane Ryan,Public,190 Park Lane,Trumbull,6611,Fairfield,2.7,0.2,2.9
Madison Middle School,Public,4630 Madison Ave.,Trumbull,6611,Fairfield,2.0,0.3,2.3
Middlebrook Elementary,Public,220 Middlebrooks Ave,Trumbull,6611,Fairfield,2.7,0.0,2.7
St Joseph High School,Non-public,2320 Huntington Turnpike,Trumbull,6611,Fairfield,2.5,0.1,2.7
St. Catherine Of Siena School,Non-public,190 Shelton Rd,Trumbull,6611,Fairfield,2.5,0.0,2.5
St. Theresa'S School,Non-public,55 Rosemond Terrace,Trumbull,6611,Fairfield,7.8,0.0,7.8
St. Vincent'S Special Needs,Non-public,95 Merritt Blvd.,Trumbull,6611,Fairfield,8.9,3.8,12.7
Trumbull Early Childhood Education Center,Public,240 Middlebrooks Avenue,Trumbull,6611,Fairfield,0.0,1.7,1.7
Trumbull High School,Public,72 Strobel Rd,Trumbull,6611,Fairfield,1.9,0.6,2.4
Tashua,Public,401 Stonehouse Rd,Trumbull,6611,Fairfield,1.9,0.9,2.8
Mohegan Elementary School,Public,49 Golden Rd,Uncasville,6382,New London,1.6,1.6,3.2
Saint Bernard School,Non-public,1593 Norwich Nl Turnpike,Uncasville,6382,New London,1.7,0.0,1.7
Union School,Public,18 Kinney Hollow Dr,Union,6076,Tolland,1.9,1.9,3.8
Union Elementary School,Public,173 School St,Unionville,6085,Hartford,1.5,2.7,4.2
West District Elementary School,Public,114 W District Rd,Unionville,6085,Hartford,1.8,0.8,2.5
Center Road School,Public,20 Center St,Vernon,6066,Tolland,0.9,0.2,1.1
Lake Street School,Public,201 Lake Street,Vernon,6066,Tolland,2.3,0.8,3.0
Maple Street School,Public,20 Maple Street,Vernon,6066,Tolland,2.4,1.2,3.5
Rockville High School,Public,70 Loveland Hill Road,Vernon,6066,Tolland,2.1,0.3,2.5
Skinner Road School,Public,90 Skinner Road,Vernon,6066,Tolland,1.9,0.0,1.9
Vernon Center Middle School,Public,777 Hartford Turnpike,Vernon,6066,Tolland,2.2,0.4,2.6
Northeast School,Public,69 East Street,Vernon,6066,Tolland,1.4,0.0,1.4
Voluntown Elementary School,Public,195 Main Street,Voluntown,6384,New London,2.4,0.0,2.4
Holy Trinity School,Non-public,11 North Whittlesey Ave,Walingford,6492,New Haven,4.6,0.5,5.1
Benhaven Academy,Non-public,50 North Plains Highway,Wallingford,6492,New Haven,,,
Benhaven School,Non-public,125 North Plains Industrial Rd,Wallingford,6492,New Haven,0.0,0.0,0.0
BEST Academy,Non-public,5 Barnes Industrial Road South,Wallingford,6492,New Haven,2.8,5.6,8.3
Choate Rosemary Hall,Non-public,333 Christian Street,Wallingford,6492,New Haven,0.2,0.0,0.2
Cook Hill Elementary School,Public,57 Hall Road,Wallingford,6492,New Haven,0.3,0.5,0.8
Dag Hammarskjold Middle School,Public,106 Pond Hill Road,Wallingford,6492,New Haven,3.5,0.2,3.6
High Road School Of Wallingford: High School,Non-public,31 Village Lane,Wallingford,6492,New Haven,0.0,0.0,0.0
High Road School Of Wallingford: Primary/Middle School,Non-public,33 Village Lane,Wallingford,6492,New Haven,,,
James H Moran Middle School,Public,141 Hope Hill Road,Wallingford,6492,New Haven,1.7,0.0,1.7
Lyman Hall High School,Public,70 Pond Hill Road,Wallingford,6492,New Haven,1.3,0.0,1.3
Mark T. Sheehan High School,Public,142 Hope Hill Road,Wallingford,6492,New Haven,1.1,0.4,1.5
Mary G. Fritz Elementary School,Public,415 Church St,Wallingford,6492,New Haven,1.7,0.0,1.7
Moses Y. Beach Elementary School,Public,340 N Main St,Wallingford,6492,New Haven,0.0,0.3,0.3
Parker Farms Elementary School,Public,30 Parker Farms Road,Wallingford,6492,New Haven,0.9,0.0,0.9
Pond Hill Elementary School,Public,299 Pond Hill Road,Wallingford,6492,New Haven,3.0,0.0,3.0
Rock Hill Elementary School,Public,911 Durham Rd.,Wallingford,6492,New Haven,1.7,0.0,1.7
Evarts C. Stevens Elementary School,Public,18 Kondracki Lane,Wallingford,6492,New Haven,2.1,0.3,2.4
Warren School,Public,21 Sackett Hill Road,Warren,6754,Litchfield,4.3,0.0,4.3
Shepaug Valley School,Public,159 South Street,Washington,6794,Litchfield,7.5,0.0,7.5
The Frederick Gunn School,Non-public,99 Green Hill Road,Washington,6793,Litchfield,0.9,0.0,0.9
Washington Primary School,Public,11 School Street,Washington Depot,6794,Litchfield,3.1,0.0,3.1
Buchs Hill Elementary,Public,300 Bucks Hill Rd,Waterbury,6704,New Haven,0.2,0.2,0.3
Bucks Hill Pre-K,Public,330 Bucks Hill Rd,Waterbury,6704,New Haven,0.0,0.8,0.8
Bunker Hill,Public,170 Bunker Hill Rd,Waterbury,6708,New Haven,0.0,0.0,0.0
Carrington,Public,24 Kenmore Ave,Waterbury,6708,New Haven,0.6,0.0,0.6
Catholic Academy,Non-public,386 Robinwood Road,Waterbury,6708,New Haven,0.5,0.0,0.5
Chase Elementary School,Public,40 Woodtick Rd,Waterbury,6705,New Haven,0.5,0.1,0.7
Crosby High School,Public,300 Pierpont Road,Waterbury,6705,New Haven,0.2,0.0,0.2
Driggs,Public,77 Woodlawn Terr,Waterbury,6710,New Haven,0.2,0.0,0.2
Duggan,Public,38 West Porter St,Waterbury,6708,New Haven,0.0,0.0,0.0
Gilmartin Elementary School,Public,94 Springlake Road,Waterbury,6706,New Haven,0.0,0.4,0.4
Holy Cross High School,Non-public,587 Oronoke Rd,Waterbury,6708,New Haven,1.2,0.0,1.2
Hopeville Elementary School,Public,2 Cypress St,Waterbury,6706,New Haven,0.0,0.0,0.0
International School,Public,116 Beecher Ave,Waterbury,6705,New Haven,0.6,0.0,0.6
John F Kennedy High School,Public,422 Highland Avenue,Waterbury,6708,New Haven,0.0,0.0,0.0
M.M. Generali,Public,3196 East Main St.,Waterbury,6705,New Haven,0.6,0.0,0.6
Maloney Interdistrict Magnet School,Public,233 South Elm Street,Waterbury,6706,New Haven,0.8,0.2,0.9
Our Lady Of Mount Carmel School,Non-public,645 Congress Ave,Waterbury,6708,New Haven,2.0,0.0,2.0
Regan,Public,2780 North Main St,Waterbury,6704,New Haven,0.0,0.0,0.0
Sprague,Public,1443 Thomaston Ave,Waterbury,6704,New Haven,0.7,0.0,0.7
State Street,Public,30 Church St,Waterbury,6702,New Haven,0.0,0.0,0.0
Tinker School,Public,809 Highland Ave,Waterbury,6708,New Haven,0.0,0.0,0.0
Wallace Middle School,Public,3465 East Main Street,Waterbury,6705,New Haven,0.9,0.1,1.0
Washington,Public,685 Baldwin St,Waterbury,6702,New Haven,0.4,0.0,0.4
Waterbury Arts Magnet School,Public,16 South Elm St,Waterbury,6706,New Haven,0.7,0.1,0.9
Wendell Cross Elementary School,Public,1255 Highland Ave,Waterbury,6706,New Haven,0.2,0.0,0.2
Westside Middle School,Public,483 Chase Parkway,Waterbury,6708,New Haven,0.1,0.0,0.1
Wilby High School,Public,568 Bucks Hill Rd,Waterbury,6704,New Haven,0.2,0.1,0.2
W.F. Kaynor Ct Techincal Education & Career,Non-public,43 Tomkins Street,Waterbury,6708,Hartford,1.9,0.1,2.0
Wilson,Public,"235 Birch St, Waterbury, Ct 06704",Waterbury,6704,New Haven,0.0,0.0,0.0
Clark Lane Middle School,Public,105 Clark Lane,Waterford,6385,Tolland,0.9,0.0,0.9
Great Neck Elementary,Public,165 Great Neck Road,Waterford,6385,New London,0.9,0.0,0.9
Oswegatchie Elementary School,Public,470 Boston Post Road,Waterford,6385,New London,1.2,1.2,2.5
The Friendship School,Public,24 Rope Ferry Road,Waterford,6385,New London,0.2,0.2,0.4
Waterford High School,Public,20 Rope Ferry Rd,Waterford,6385,New London,1.8,1.1,2.9
Fletcher W Judson Elementary School,Public,124 Hamilton Ave,Watertown,6795,Litchfield,3.1,0.0,3.1
St John The Evangelist,Non-public,760 Main St,Watertown,6795,Litchfield,3.6,0.0,3.6
The Taft School,Non-public,110 Woodbury Rd.,Watertown,6795,Litchfield,0.2,0.0,0.2
Watertown High School,Public,324 French Street,Watertown,6795,Litchfield,2.4,0.0,2.4
Latimer Lane Elementary School,Public,33 Mountain View Road,Weatogue,6089,Hartford,2.7,0.2,2.9
Cornwall Consolidated School,Public,5 Cream Hill Road,West Cornwall,6796,Litchfield,5.4,1.1,6.5
Aiken Elementary School,Public,212 King Philip Drive,West Hartford,6119,Hartford,1.4,0.2,1.7
American School For The Deaf,Public,139 N. Main St.,West Hartford,6107,Hartford,0.7,0.0,0.7
Ben Bronz Academy,Non-public,11 Wampanoag Dr.,West Hartford,6117,Hartford,5.2,0.0,5.2
Braeburn School,Public,45 Braeburn Rd,West Hartford,6107,Hartford,1.4,0.3,1.7
Bristow Middle School,Public,34 Highland Street,West Hartford,6119,Hartford,2.5,0.0,2.5
Bugbee Elementary,Public,1943 Asylum Avenue,West Hartford,6117,Hartford,0.8,0.5,1.3
Charter Oak International Academy,Public,425 Oakwood Avenue,West Hartford,6110,Hartford,3.1,0.0,3.1
Conard High School,Public,110 Beechwood Rd,West Hartford,6107,Hartford,1.1,0.6,1.7
Hall High School,Public,975 North Main Street,West Hartford,6117,Hartford,1.4,0.4,1.8
Intensive Education Academy,Non-public,840 North Main Street,West Hartford,6117,Hartford,8.2,0.0,8.2
King Philip Middle School,Public,100 King Philip Drive,West Hartford,6117,Hartford,1.5,0.1,1.6
Kingswood Oxford School,Non-public,170 Kingswood Road,West Hartford,6119,Hartford,1.4,0.0,1.4
Louise Duffy Elementary School,Public,95 Westminster Dr.,West Hartford,6109,Hartford,0.4,0.0,0.4
Montessori School Of Greater Hartford,Non-public,141 North Main Street,West Hartford,6107,Hartford,1.1,0.5,1.6
Morley,Public,77 Bretton Road,West Hartford,6119,Hartford,1.3,0.0,1.3
New England Jewish Academy,Non-public,300 Bloomfield Avenue,West Hartford,6117,Hartford,3.4,0.0,3.4
Norfeldt Elementary,Public,35 Barksdale Road,West Hartford,6117,Hartford,1.2,0.3,1.4
Renbrook School,Non-public,2865 Albany Ave,West Hartford,6117,Hartford,2.1,0.0,2.1
Saint Thomas The Apostle,Non-public,25 Dover Road,West Hartford,6119,Hartford,4.8,0.0,4.8
Sedgwick Middle,Public,128 Sedgwick Road,West Hartford,6107,Hartford,1.5,0.2,1.7
Smith,Public,64 St James Street,West Hartford,6042,Hartford,0.0,0.3,0.3
Solomon Schechter Day School,Non-public,26 Buena Vista Rd,West Hartford,6107,Hartford,0.8,0.0,0.8
St. Timothy Middle School,Non-public,225 King Philip Drive,West Hartford,6117,Hartford,1.0,0.0,1.0
The Gengras Center,Non-public,1678 Asylum Ave,West Hartford,6117,Hartford,5.7,1.4,7.1
Through The Eyes Of A Child,Non-public,20 Dover Rd.,West Hartford,6119,Hartford,,,
University Of Hartford Magnet School,Public,196 Bloomfield Ave.,West Hartford,6117,Hartford,1.3,0.2,1.5
Webster Hill Elementary,Public,125 Webster Hill Blvd,West Hartford,6107,Hartford,1.5,0.3,1.8
Whiting Lane Elementary,Public,47 Whiting Lane,West Hartford,6119,Hartford,0.5,0.0,0.5
Northwest Catholic High School,Non-public,29 Wampanoag Drive,West Hartford,6117,Hartford,2.1,0.0,2.1
Wolcott Elementary,Public,71 Wolcott Rd,West Hartford,6110,Hartford,1.1,0.0,1.1
Bailey Middle School,Public,106 Morgan Lane,West Haven,6516,New Haven,0.2,0.2,0.5
Carrigan,Public,2 Tetlow St.,West Haven,6516,New Haven,0.5,0.1,0.6
Engineering And Science University Magnet School,Public,500 Boston Post Road,West Haven,6516,New Haven,1.0,0.2,1.2
Forest,Public,95 Burwell Road,West Haven,6512,New Haven,0.2,0.0,0.2
Mackrille Elementary School,Public,806 Jones Hill Rd,West Haven,6516,New Haven,0.0,0.0,0.0
Notre Dame,Non-public,1 Notre Dame Way,West Haven,6516,New Haven,1.0,0.0,1.0
Pagels,Public,26 Benham Hill Road,West Haven,6516,New Haven,0.5,0.0,0.5
Savin Rock Community School,Public,50 Park Street,West Haven,6516,New Haven,0.0,0.0,0.0
Seth G. Haley,Public,148 South Street,West Haven,6516,New Haven,0.3,0.3,0.5
St. Lawrence School,Non-public,231 Main Street,West Haven,6516,New Haven,0.0,0.0,0.0
Washington,Public,369 Washington Ave,West Haven,6516,New Haven,0.8,0.5,1.4
The Master'S School,Non-public,36 Westledge Rd,West Simsbury,6092,Hartford,5.9,0.0,5.9
Tootin' Hills,Public,25 Nimrod Rd,West Simsbury,6092,Hartford,1.0,1.0,2.0
Spaulding Elementary,Public,945 Mountain Road,West Suffield,6493,Hartford,1.6,0.2,1.8
Oxford Academy,Non-public,1393 Boston Post Road,Westbrook,6498,Hartford,0.0,0.0,0.0
Westbrook High School,Public,156 Mcveagh Road,Westbrook,86498,Middlesex,1.6,0.0,1.6
Westbrook Middle School,Public,154 Mcveagh Road,Westbrook,6498,Middlesex,1.9,0.0,1.9
Daisy Ingraham Elementary School,Public,105 Goodspeed Drive,Westbrook,6498,Middlesex,3.1,0.4,3.5
Hurlbutt Elementary School,Public,9 School Rd,Weston,6883,Fairfield,2.1,0.4,2.5
Weston Intermediate School,Public,95 School Rd,Weston,6883,Fairfield,3.7,0.0,3.7
Weston Middle School,Public,135 School Road,Weston,6883,Fairfield,2.4,0.2,2.6
Coleytown Elementary School,Public,65 Easton Road,Westport,6880,Fairfield,4.9,0.0,4.9
Coleytown Middle School,Public,255 North Avenue,Westport,6880,Fairfield,1.7,0.0,1.7
Greens Farms Elementary,Public,17 Morningside Drive South,Westport,6880,Fairfield,1.7,0.4,2.2
Landmark Preschool,Non-public,11 Burr Road,Westport,6880,Fairfield,0.0,1.6,1.6
Long Lots Elementary School,Public,13 Hyde Lane,Westport,6880,Fairfield,2.0,1.2,3.2
Staples High School,Public,70 North Ave,Westport,6880,Fairfield,2.1,0.7,2.8
Stepping Stones Preschool,Public,65 Easton Road,Westport,6880,Fairfield,0.0,0.0,0.0
Bedford Middle School,Public,88 North Ave.,Westport,6880,Fairfield,3.0,0.7,3.7
Saugatuck Elementary School,Public,170 Riverside Avenue,Westport,6880,Fairfield,3.0,0.0,3.0
Alfred W Hanmer Elementary School,Public,50 Francis Street,Wethersfield,6109,Hartford,1.8,0.0,1.8
Charles Wright Elementary School,Public,186 Nott Street,Wethersfield,6109,Hartford,0.7,0.7,1.5
Corpus Christi School,Non-public,581 Silas Deane Highway,Wethersfield,6109,Hartford,2.8,1.1,3.9
Discovery Academy CREC,Public,176 Cumberland Ave,Wethersfield,6109,Hartford,1.9,0.2,2.1
Emerson Williams Elementary School,Public,461 Wells Road,Wethersfield,6109,Hartford,0.5,0.2,0.7
Highcrest,Public,95 Highcrest Rd,Wethersfield,6109,Hartford,1.7,0.2,1.9
Pre-K Annex At Progress Drive,Public,123 Progress Drive,Wethersfield,6109,Hartford,0.0,0.0,0.0
Samuel Webb Elementary,Public,51 Willow Street,Wethersfield,6109,Hartford,1.2,0.9,2.0
Wethersfield High School,Public,411 Wolcott,Wethersfield,6109,Hartford,1.7,0.0,1.7
Silas Deane Middle School,Public,551 Silas Deane Highway,Wethersield,6109,Hartford,1.4,0.2,1.6
Arts At The Capitol Theater Magnet High School,Public,896 Main Street,Willimantic,6226,Windham,4.7,0.0,4.7
Natchaug School,Public,123 Jackson Street,Willimantic,6226,Windham,0.4,0.0,0.4
Windham Early Childhood Center,Public,123 Quarry Street,Willimantic,6226,Windham,0.0,0.0,0.0
Windham High School,Public,123 High Street,Willimantic,6226,Windham,0.6,0.3,0.9
Windham Middle School,Public,123 Quarry Steet,Willimantic,6226,Windham,0.9,0.2,1.0
Windham Technical High School,Public,210 Birch St.,Willimantic,6226,Windham,1.7,0.0,1.7
Sweeney Elementary School,Public,60 Oak Hill Road,Willimantic,6226,Windham,0.0,0.0,0.0
Center Elementary School,Public,12 Old Farms Road,Willington,6279,Tolland,1.8,0.0,1.8
Hall Memorial School,Public,111 River Road,Willington,6279,Tolland,1.7,0.0,1.7
Cider Mill School,Public,240 School Road,Wilton,6897,Fairfield,3.1,0.0,3.1
Middlebrook,Public,131 School Rd,Wilton,6897,Fairfield,3.3,3.0,6.3
Miller Driscoll,Public,217 Wolfpit Road,Wilton,6897,Fairfield,2.5,1.2,3.7
Wilton High School,Public,395 Danbury Road,Wilton,6897,Fairfield,2.3,2.3,4.6
Seven Acres Montessori,Non-public,34 Whipple Rd,Wilton,6897,Fairfield,5.6,1.4,7.0
Windham Center School,Public,45 North Road,Windham,6280,Windham,0.9,0.0,0.9
Academy Of Aerospace And Engineering Middle/Highschool,Public,1101 Kennedy Rd,Windsor,6095,Hartford,1.1,0.1,1.2
John F. Kennedy,Public,530 Park Ave.,Windsor,6095,Hartford,1.1,0.0,1.1
Oliver Ellsworth Elementary,Public,730 Kennedy Road,Windsor,6095,Hartford,0.2,0.7,0.9
Poquonock Elementary School,Public,1760 Poquonock Avenue,Windsor,6095,Hartford,0.3,0.0,0.3
River Street School,Public,601 River Street,Windsor,6095,Hartford,2.8,1.4,4.3
Sage Park Middle School,Public,25 Sage Park Rd,Windsor,6095,Hartford,0.6,0.0,0.6
Saint Gabriel School,Non-public,77 Bloomfield Ave.,Windsor,6095,Hartford,0.7,0.0,0.7
The Loomis Chaffee School,Non-public,4 Batchelder Road,Windsor,6095,Hartford,0.3,0.0,0.3
Trinity Christian School,Non-public,180 Park Ave.,Windsor,6095,Hartford,,,
Windsor High School,Public,50 Sage Park Road,Windsor,6095,Hartford,0.7,0.1,0.8
North Street School,Public,325 North Street,Windsor Locks,6096,Hartford,1.5,1.0,2.5
South Street School,Public,87 South Street,Windsor Locks,6096,Hartford,3.1,0.0,3.1
Windsor Locks High,Public,58 South Elm Street,Windsor Locks,6096,Hartford,1.4,0.0,1.4
Windsor Locks Middle School,Public,10 South Center Street,Windsor Locks,6096,Hartford,1.2,0.0,1.2
Explorations Charter School,Public,71 Spencer Street,Winsted,6098,Litchfield,0.0,0.0,0.0
Regional School District 7,Public,100 Battistoni Drive,Winsted,6098,Litchfield,5.0,0.3,5.3
The Gilbert School,Public,200 Williams Avenue,Winsted,6098,Litchfield,0.5,0.0,0.5
Alcott Elementary School,Public,1490 Woodtick Road,Wolcott,6716,New Haven,1.0,0.0,1.0
Frisbie Elementary School,Public,24 Todd Road,Wolcott,6716,New Haven,0.3,0.0,0.3
Tyrrell Middle School,Public,500 Todd Road,Wolcott,6716,New Haven,0.4,0.0,0.4
Wakelee Elementary School,Public,12 Hemplel Drive,Wolcott,6716,New Haven,0.8,0.0,0.8
Wolcott High School,Public,457 Bound Line Road,Wolcott,6716,New Haven,0.9,0.0,0.9
Nonnewaug High School,Public,5 Minortown Rd,Woobury,6798,Litchfield,3.9,0.3,4.1
Amity Region High School,Public,25 Newton Road,Woodbridge,6525,New Haven,0.8,0.2,1.0
Beecher Road School,Public,40 Beecher Road,Woodbridge,6525,New Haven,3.8,0.0,3.8
Ezra Academy,Non-public,75 Rimmon Road,Woodbridge,6525,New Haven,0.0,0.0,0.0
Mitchell Elementary School,Public,14 School Street,Woodbury,6798,Litchfield,4.1,0.0,4.1
Woodbury Middle School,Public,67 Washington Avenue,Woodbury,6798,Litchfield,3.3,0.0,3.3
Woodstock Academy,Public,57 Academy Road,Woodstock,6281,Windham,1.2,0.1,1.3
Woodstock Elementary School,Public,24 Frog Pond Road,Woodstock,6281,Windham,2.8,0.5,3.3
Woodstock Middle School,Public,147B Rte169,Woodstock,6281,Windham,2.9,0.9,3.8
